company_name,location,city,country,services,company_url,membership_years,membership_types,description,contact_available,scraped_at,source_page,source_url,email,all_emails,phone,all_phones,website,all_websites,address,all_addresses
Vantage Logistics Corporation,Ho Chi Minh City - Vietnam,Ho Chi Minh City,Vietnam,"['FCL', 'Air Freight', 'Customs Clearance', 'Express', 'Break Bulk']",https://www.jctrans.com/en/store/home/a47d7bc9893a27b2da6f88159672601a,22-Year,"['VIP Level 1', 'VIP Level 7', 'VIP Level 2', 'VIP Level 4']",ONE-STOP SHOP FOR INTEGRATED LOGISTICS SERVICES,True,2025-08-06T07:21:56.907858,1,"https://www.jctrans.com/en/membership/list/0-JC%20Elite,GCP?years=0&page=1",info@vlc.com.vn,['info@vlc.com.vn'],+84-28 382 67312,"['+84-28 382 67312', '+84-909-026-261', '21020202000645', '2022004632']",https://freight.vlc.com.vn/,"['https://freight.vlc.com.vn/', 'https://vantage-logistics.com.vn/']","688886
22-Year
Subscribe

ONE-STOP SHOP FOR INTEGRATED LOGISTICS SERVICES

JC Elite
12-Dec-2027 
JC Projects
19-Feb-2028 
JC Dangerous Goods
19-Feb-2028 
JC eCommerce
19-Feb-2028 
Chat Online
1-on-1 Inquiry
Service Scope
Company Profile
Attented History
Contact Us
Service Scope
Total Likes
28
····
Company Profile
Vantage Logistics Corp","['688886\n22-Year\nSubscribe\n\nONE-STOP SHOP FOR INTEGRATED LOGISTICS SERVICES\n\nJC Elite\n12-Dec-2027 \nJC Projects\n19-Feb-2028 \nJC Dangerous Goods\n19-Feb-2028 \nJC eCommerce\n19-Feb-2028 \nChat Online\n1-on-1 Inquiry\nService Scope\nCompany Profile\nAttented History\nContact Us\nService Scope\nTotal Likes\n28\n····\nCompany Profile\nVantage Logistics Corp', '23 years of expertise in international transportation and a fully integrated chain of comprehensive logistics services. We are dedicated to delivering optimal solutions that enhance efficiency and create added value for businesses.\nWith a robust network across the ASEAN region, Vantage Logistics serves as a vital bridge, connecting products from Vietnam and Southeast Asia to the global market. Guided by dedication, professionalism, and continuous innovation, we are committed to helping our clients achieve sustainable business success.\nWe have certificates: C-TPAT, IATA, ISO 9001:2015, FMC OTI-NVOCC Bond, Customs Agents License, and HSSE Compliance services we provide:\n\n+ Logistics Services to Customers/ Partners\n- International Freight (Sea + Air)\n- Customs Brokerage, Permit/ License/ Master List Application\n- Warehouse\n- Trucking\n- Project Logistics - Specialized Activity\n- Perishable Logistics\n- Global Sales Logistics\n- Parcel/ Courier Logistics\n- Break Bulk – Bulk Logistics\n- Dangerous Goods (Dg) Logistics\n- Oil & Gas Logistics\n- Offshore Services…\n\n+ Carrier Agency/ Partners (Break bulk vessel agency service; Tanker service)\n-\tOperation/ Exclusive/ General Sales Agency for International Carriers\n-\tOperation General Sales Agency for Domestic Carriers\n\n+ Operation/ Execution Agent for Logistics Infrastructures (Ports, ICD, Logistics Hub/ Depot, Warehouse)\n\n+ GSA Airlines :\n-\tTicket General Sales Agent, \n-\tSlot, Landing Permit, FAOC, Flight Schedule Application,\n-\tGround Handling, \n-\tServices for Private Jet_VVIP\n\n+ Trading/ Procurement services\n-\tBuying Agent – Sourcing South East Asia (S', '6.01, Block A, RiverGate 151-155 Ben Van Don Str, District 4, HCMC, Viet Nam\nEmail: info@vlc', '151-155 Ben Van Don Street, District 4, Ho Chi Minh city, Viet Nam.\n\nEstablishment Time\n\n2002\n\nEnterprise Size\n\n101-500\n\nWebsite\n\nhttps://vantage-logistics', '2-20240208\n\nPost Inquiry\n\nGo to cart']"
Apex International Inc,Tokyo - Japan,Tokyo,Japan,"['Air Freight', 'FCL', 'Hazardous Cargo', 'Customs Clearance', 'Japan-China Mainland']",https://www.jctrans.com/en/store/home/9dee72ef3ee05e4dfe5a81a1a8176f5d,18-Year,"['VIP Level 1', 'VIP Level 7']","On Time Performance, APEX Provides",True,2025-08-06T07:21:57.011651,1,"https://www.jctrans.com/en/membership/list/0-JC%20Elite,GCP?years=0&page=1",,,21020202000645,"['21020202000645', '2022004632']",https://www.apexintl.co.jp,['https://www.apexintl.co.jp'],"668888
18-Year
Subscribe

On Time Performance, APEX Provides

JC Elite
22-Oct-2034 
JC Projects
14-Feb-2026 
Chat Online
1-on-1 Inquiry
Service Scope
Company Profile
Attented History
Contact Us
Service Scope
Total Likes
21
····
Company Profile
We offers a total service of logistics and international transportation via air, ocean and ground from origin to destination across the globe, APEX, as a non-asset based logistics provider, we have relationship with the major air, ocean and ground carriers, to best support your ever-changing logistics needs, we customize the every possible mode of transportation to provide flexible and efficient solutions","['668888\n18-Year\nSubscribe\n\nOn Time Performance, APEX Provides\n\nJC Elite\n22-Oct-2034 \nJC Projects\n14-Feb-2026 \nChat Online\n1-on-1 Inquiry\nService Scope\nCompany Profile\nAttented History\nContact Us\nService Scope\nTotal Likes\n21\n····\nCompany Profile\nWe offers a total service of logistics and international transportation via air, ocean and ground from origin to destination across the globe, APEX, as a non-asset based logistics provider, we have relationship with the major air, ocean and ground carriers, to best support your ever-changing logistics needs, we customize the every possible mode of transportation to provide flexible and efficient solutions', '7Fl, Toyokuni Bldg, 2-4-6 Shiba-Daimon, Minato-Ku, Hamamatsucho, Tokyo,Japan.\n\nEstablishment Time\n\n2000\n\nEnterprise Size\n\n11-50\n\nWebsite\n\nwww.apexintl.co.jp\n\nCertificates\nApex International IncJapan , , , , , ,\nMembership\nMembership introduction\nBenefits Overview\nJC Elite\nJC Premium\nJC Rising\nJC Project\nJC Dangerous Goods\nJC Railway\nJC eCommerce\nJC Vendor\nClub\nBecome a Member\nBusiness Opportunity\nCompany Directory\nInquiry\nFind Agent\nCooperation Risk Protection\nRisk Member List\nOnline Claim\nRisk Prevention\nAssurance Introduction\nEvent\nGlobal Conference\nExhibiton\nIndustry Event\nJC Pay\nSettlement between members without any fees\nCollect money from your Chinese partner cheap and fast\nTools\nSchedule Plan\nContainer Tracking\nAMS Filing\nISF Filing\nACI(EM) Filing\nAFR Filing\nFMC Application\nJC Selection\nFreightsite Finder\nAbout Us\nAbout Us\nContact Us\nResources\nSuccess Story\nHelp Center\nCustomer\nMy Dashboard\nOpinion/Suggestion\nSign In\nSign up\n\n© 2025 jctrans', '2-20240208\n\nPost Inquiry\n\nGo to cart']"
MS GLOBAL FREIGHT SOLUTION SDN BHD,Kuala Lumpur - Malaysia,Kuala Lumpur,Malaysia,"['Air Freight', 'Special Container', 'Break Bulk', 'FCL', 'Reefer Container']",https://www.jctrans.com/en/store/home/aaca51f6e01d497c86e9430fa0cc34cb,16-Year,"['VIP Level 1', 'VIP Level 7']","IATA Airfreight agent , Oversized Heavy Project",True,2025-08-06T07:21:57.107391,1,"https://www.jctrans.com/en/membership/list/0-JC%20Elite,GCP?years=0&page=1",,,21020202000645,"['21020202000645', '2022004632']",https://www.msglobal.com.my,['https://www.msglobal.com.my'],"108295
16-Year
Subscribe

IATA Airfreight agent , Oversized Heavy Project

JC Elite
17-Dec-2029 
JC Projects
6-May-2029 
Chat Online
1-on-1 Inquiry
Service Scope
Company Profile
Attented History
Contact Us
Service Scope
Total Likes
12
····
Company Profile
MS Global Freight Solution Sdn Bhd is established in Malaysia by veteran logistics professionals to assist clients to expand business worldwide","['108295\n16-Year\nSubscribe\n\nIATA Airfreight agent , Oversized Heavy Project\n\nJC Elite\n17-Dec-2029 \nJC Projects\n6-May-2029 \nChat Online\n1-on-1 Inquiry\nService Scope\nCompany Profile\nAttented History\nContact Us\nService Scope\nTotal Likes\n12\n····\nCompany Profile\nMS Global Freight Solution Sdn Bhd is established in Malaysia by veteran logistics professionals to assist clients to expand business worldwide', '19, KELANA JAYA, PETALING JAYA, Kuala Lumpur, Malaysia\n\nEstablishment Time\n\n2013\n\nEnterprise Size\n\n11-50\n\nWebsite\n\nwww.msglobal.com.my\n\nCertificates\nMS GLOBAL FREIGHT SOLUTION SDN BHDMalaysia , , , ,\nMembership\nMembership introduction\nBenefits Overview\nJC Elite\nJC Premium\nJC Rising\nJC Project\nJC Dangerous Goods\nJC Railway\nJC eCommerce\nJC Vendor\nClub\nBecome a Member\nBusiness Opportunity\nCompany Directory\nInquiry\nFind Agent\nCooperation Risk Protection\nRisk Member List\nOnline Claim\nRisk Prevention\nAssurance Introduction\nEvent\nGlobal Conference\nExhibiton\nIndustry Event\nJC Pay\nSettlement between members without any fees\nCollect money from your Chinese partner cheap and fast\nTools\nSchedule Plan\nContainer Tracking\nAMS Filing\nISF Filing\nACI(EM) Filing\nAFR Filing\nFMC Application\nJC Selection\nFreightsite Finder\nAbout Us\nAbout Us\nContact Us\nResources\nSuccess Story\nHelp Center\nCustomer\nMy Dashboard\nOpinion/Suggestion\nSign In\nSign up\n\n© 2025 jctrans', '2-20240208\n\nPost Inquiry\n\nGo to cart']"
Conturk Shipping,Istanbul - Turkiye,Istanbul,Turkiye,"['FCL', 'Reefer Container', 'Customs Clearance']",https://www.jctrans.com/en/store/home/d739cf5aefec7390ec85963bbc5b546e,15-Year,['VIP Level 1'],SHIPPING SERVICES AT YOUR COMMAND !,True,2025-08-06T07:21:57.215673,1,"https://www.jctrans.com/en/membership/list/0-JC%20Elite,GCP?years=0&page=1",,,21020202000645,"['21020202000645', '2022004632']",https://www.conturk.com,['https://www.conturk.com'],"14-Dec-2025 
Chat Online
1-on-1 Inquiry
Service Scope
Company Profile
Attented History
Contact Us
Service Scope
Total Likes
5
Company Profile
Company Mission: Conturk goal is to serve the international ship agencies, freight forwarding companies, worldwide importers and exporters as their local office in Turkey","['14-Dec-2025 \nChat Online\n1-on-1 Inquiry\nService Scope\nCompany Profile\nAttented History\nContact Us\nService Scope\nTotal Likes\n5\nCompany Profile\nCompany Mission: Conturk goal is to serve the international ship agencies, freight forwarding companies, worldwide importers and exporters as their local office in Turkey', '100 Turkish investment and run by a chamber of administration. In Conturk every single unit from  level to the  general manager has a right to speak and contribute to the coordination of the company\n\nBasic Information\n\nLocation\n\nIstanbul, Turkiye\n\nAddress\n\nGeneral Asim Gunduz Cad', '73 1st Floor', '2005\n\nEnterprise Size\n\n11-50\n\nWebsite\n\nwww.conturk.com\n\nCertificates\n\nCompany Picture\n\nConturk ShippingTurkiye , , , ,\nMembership\nMembership introduction\nBenefits Overview\nJC Elite\nJC Premium\nJC Rising\nJC Project\nJC Dangerous Goods\nJC Railway\nJC eCommerce\nJC Vendor\nClub\nBecome a Member\nBusiness Opportunity\nCompany Directory\nInquiry\nFind Agent\nCooperation Risk Protection\nRisk Member List\nOnline Claim\nRisk Prevention\nAssurance Introduction\nEvent\nGlobal Conference\nExhibiton\nIndustry Event\nJC Pay\nSettlement between members without any fees\nCollect money from your Chinese partner cheap and fast\nTools\nSchedule Plan\nContainer Tracking\nAMS Filing\nISF Filing\nACI(EM) Filing\nAFR Filing\nFMC Application\nJC Selection\nFreightsite Finder\nAbout Us\nAbout Us\nContact Us\nResources\nSuccess Story\nHelp Center\nCustomer\nMy Dashboard\nOpinion/Suggestion\nSign In\nSign up\n\n© 2025 jctrans', '2-20240208\n\nPost Inquiry\n\nGo to cart']"
CANWAYS SHIPPING SA,Piraeus - Greece,Piraeus,Greece,"['FCL', 'LCL', 'Special Container', 'Air Freight', 'Warehousing']",https://www.jctrans.com/en/store/home/bf7c0b157fced6a6ace15ec9c6261bd5,14-Year,"['VIP Level 1', 'VIP Level 7']",Creating the maximum benefit for the clientele.,True,2025-08-06T07:21:57.349608,1,"https://www.jctrans.com/en/membership/list/0-JC%20Elite,GCP?years=0&page=1",,,21020202000645,"['21020202000645', '2022004632']",https://canways.com/,['https://canways.com/'],"200002
14-Year
Subscribe

Creating the maximum benefit for the clientele.

JC Elite
3-Mar-2031 
JC Projects
4-Aug-2027 
Chat Online
1-on-1 Inquiry
Service Scope
Company Profile
Attented History
Contact Us
Service Scope
Total Likes
9
····
Company Profile
CANWAYS SHIPPING SA is an International Shipping and Logistics Provider","['200002\n14-Year\nSubscribe\n\nCreating the maximum benefit for the clientele.\n\nJC Elite\n3-Mar-2031 \nJC Projects\n4-Aug-2027 \nChat Online\n1-on-1 Inquiry\nService Scope\nCompany Profile\nAttented History\nContact Us\nService Scope\nTotal Likes\n9\n····\nCompany Profile\nCANWAYS SHIPPING SA is an International Shipping and Logistics Provider', '131 PRAXITELOUS STREET\n\nEstablishment Time\n\n2003\n\nEnterprise Size\n\n51-100\n\nWebsite\n\nhttps://canways', '2-20240208\n\nPost Inquiry\n\nGo to cart']"
1UP CARGO,Los Angeles - United States,Los Angeles,United States,"['FCL', 'LCL', 'Air Freight', 'Customs Clearance', 'Truck']",https://www.jctrans.com/en/store/home/e2d13bd1a1c490f77f5b24ce945a2814,13-Year,['VIP Level 1'],,True,2025-08-06T07:21:57.431193,1,"https://www.jctrans.com/en/membership/list/0-JC%20Elite,GCP?years=0&page=1",,,21020202000645,"['21020202000645', '2022004632']",https://www.1upcargo.com,"['https://www.1upcargo.com', 'https://www.1upcargo.com']","1UP CARGO

Member ID 777788
13-Year
Subscribe

JC Elite
27-Feb-2034 
Orders:1 US $3","['1UP CARGO\n\nMember ID 777788\n13-Year\nSubscribe\n\nJC Elite\n27-Feb-2034 \nOrders:1 US $3', '00\nChat Online\n1-on-1 Inquiry\nService Scope\nCompany Profile\nAttented History\nContact Us\nBranches\nService Scope\nTotal Likes\n7\n····\nCompany Profile\nOur Story : 1UP Cargo is one of the Leading Supply Chain and Freight Forwarding Solution providers', '1UP Cargo is a one-stop transportation provider with a Network of more than 3500 Agents Worldwide and own offices in two Continents.  What sets us apart is our hands on, dedicated Supply Chain Professionals who can assist you around the clock. We pride ourselves on having the right mix of Youth and Experience within our teams to ensure Dedication to your Supply Chain whilst also being able to stay on the front foot within a changing industry and remaining agile enough to modify our business practices to make use of any competitive advantages we may be able to achieve.\n\nBasic Information\n\nLocation\n\nLos Angeles, United States\n\nAddress\n\n777 S Alameda St. Los Angeles, CA 90021\n\nEstablishment Time\n\n2018\n\nEnterprise Size\n\n11-50\n\nWebsite\n\nhttps://www', '1upcargo.com\n\nCertificates\n1UP CARGOUnited States , , , ,\nMembership\nMembership introduction\nBenefits Overview\nJC Elite\nJC Premium\nJC Rising\nJC Project\nJC Dangerous Goods\nJC Railway\nJC eCommerce\nJC Vendor\nClub\nBecome a Member\nBusiness Opportunity\nCompany Directory\nInquiry\nFind Agent\nCooperation Risk Protection\nRisk Member List\nOnline Claim\nRisk Prevention\nAssurance Introduction\nEvent\nGlobal Conference\nExhibiton\nIndustry Event\nJC Pay\nSettlement between members without any fees\nCollect money from your Chinese partner cheap and fast\nTools\nSchedule Plan\nContainer Tracking\nAMS Filing\nISF Filing\nACI(EM) Filing\nAFR Filing\nFMC Application\nJC Selection\nFreightsite Finder\nAbout Us\nAbout Us\nContact Us\nResources\nSuccess Story\nHelp Center\nCustomer\nMy Dashboard\nOpinion/Suggestion\nSign In\nSign up\n\n© 2025 jctrans', '2-20240208\n\nPost Inquiry\n\nGo to cart']"
"Asian Consolidation International Services, Inc.",Manila - Philippines,Manila,Philippines,"['FCL', 'Customs Clearance', 'Consolidator', 'Air Freight', 'Break Bulk']",https://www.jctrans.com/en/store/home/caeca581f8c1264e38173c2eb2d165d5,13-Year,"['VIP Level 1', 'VIP Level 7']","Building Relations, Delivering Value",True,2025-08-06T07:21:57.531536,1,"https://www.jctrans.com/en/membership/list/0-JC%20Elite,GCP?years=0&page=1",,,21020202000645,"['21020202000645', '2022004632']",https://www.acis.ph,['https://www.acis.ph'],"877778
13-Year
Subscribe

Building Relations, Delivering Value

JC Elite
2-Jan-2028 
JC Projects
12-May-2026 
Chat Online
1-on-1 Inquiry
Service Scope
Company Profile
Attented History
Contact Us
Service Scope
Total Likes
7
····
Company Profile
Asian Consolidation International Services (ACIS) is a leading freight forwarding and Non-Vessel Operating Common Carrier (NVOCC) company based in the Philippines","['877778\n13-Year\nSubscribe\n\nBuilding Relations, Delivering Value\n\nJC Elite\n2-Jan-2028 \nJC Projects\n12-May-2026 \nChat Online\n1-on-1 Inquiry\nService Scope\nCompany Profile\nAttented History\nContact Us\nService Scope\nTotal Likes\n7\n····\nCompany Profile\nAsian Consolidation International Services (ACIS) is a leading freight forwarding and Non-Vessel Operating Common Carrier (NVOCC) company based in the Philippines', '1997, we have built a strong reputation for delivering dependable, cost-efficient, and agile logistics solutions across global markets.\n\nWith over 20 years of experience, ACIS is a trusted logistics partner to businesses worldwide, providing tailored freight forwarding services that meet the evolving demands of international trade. Our focus is to consistently exceed customer expectations through service excellence, competitive pricing, and personalized support.\n\nBasic Information\n\nLocation\n\nManila, Philippines\n\nAddress\n\n11th Floor Victoria Bldg., 429 U.N Ave., Ermita, Manila, Philippines\n\nEstablishment Time\n\n1997\n\nEnterprise Size\n\n51-100\n\nWebsite\n\nwww.acis.ph\n\nCertificates\n\nCompany Picture\n\nAsian Consolidation International Services, Inc.Philippines , , , , ,\nMembership\nMembership introduction\nBenefits Overview\nJC Elite\nJC Premium\nJC Rising\nJC Project\nJC Dangerous Goods\nJC Railway\nJC eCommerce\nJC Vendor\nClub\nBecome a Member\nBusiness Opportunity\nCompany Directory\nInquiry\nFind Agent\nCooperation Risk Protection\nRisk Member List\nOnline Claim\nRisk Prevention\nAssurance Introduction\nEvent\nGlobal Conference\nExhibiton\nIndustry Event\nJC Pay\nSettlement between members without any fees\nCollect money from your Chinese partner cheap and fast\nTools\nSchedule Plan\nContainer Tracking\nAMS Filing\nISF Filing\nACI(EM) Filing\nAFR Filing\nFMC Application\nJC Selection\nFreightsite Finder\nAbout Us\nAbout Us\nContact Us\nResources\nSuccess Story\nHelp Center\nCustomer\nMy Dashboard\nOpinion/Suggestion\nSign In\nSign up\n\n© 2025 jctrans', '2-20240208\n\nPost Inquiry\n\nGo to cart']"
"FRIENDLY GROUPS LOGISTICS CO.,LTD.",Pathum Thani - Thailand,Pathum Thani,Thailand,"['LCL', 'Air Freight', 'Customs Clearance', 'Warehousing', 'FCL']",https://www.jctrans.com/en/store/home/6f479962bc86449f7a2cdd73f2f96d0d,13-Year,"['VIP Level 1', 'VIP Level 7', 'VIP Level 2']",,True,2025-08-06T07:21:57.633582,1,"https://www.jctrans.com/en/membership/list/0-JC%20Elite,GCP?years=0&page=1",,,21020202000645,"['21020202000645', '2022004632']",https://www.friendlygl.com,['https://www.friendlygl.com'],"110072
13-Year
Subscribe

JC Elite
5-Feb-2026 
JC Projects
5-Feb-2026 
JC Dangerous Goods
6-Jun-2026 
Chat Online
1-on-1 Inquiry
Company Profile
Attented History
Contact Us
Service Scope
Total Likes
5
····
Company Profile
Founded in 1993, FG Logistics has transformed itself from a bonded warehouse operator to a global, integrated logistics operator over the last decade","['110072\n13-Year\nSubscribe\n\nJC Elite\n5-Feb-2026 \nJC Projects\n5-Feb-2026 \nJC Dangerous Goods\n6-Jun-2026 \nChat Online\n1-on-1 Inquiry\nCompany Profile\nAttented History\nContact Us\nService Scope\nTotal Likes\n5\n····\nCompany Profile\nFounded in 1993, FG Logistics has transformed itself from a bonded warehouse operator to a global, integrated logistics operator over the last decade', '2004, FG has embarked on an aggressive strategy to expand its services beyond bonded warehousing. Today, FG has invested heavily in ensuring that it has a good foundation in IT and human resources. It is has engaged more professionals to join its team, most significant is the appointment of its CEO who brings with him an international perspective to logistics management.\n\nMaintaining its Thai identity, FG Logistics aims to provide the best in class logistics services and solutions for companies doing business in Thailand. We also seek to support Thai companies with businesses overseas with our global logistics consultation and support.\n\nFG Logistics is an ISO9001 certified company.\n\nBasic Information\n\nLocation\n\nPathum Thani, Thailand\n\nAddress\n\n39 moo 16 Soi Hongsakul Klongnueng Klongluang\n\nEstablishment Time\n\n1991\n\nEnterprise Size\n\n101-500\n\nWebsite\n\nwww.friendlygl.com\n\nCertificates\nFRIENDLY GROUPS LOGISTICS CO.,LTD.Thailand , , , , , , ,\nMembership\nMembership introduction\nBenefits Overview\nJC Elite\nJC Premium\nJC Rising\nJC Project\nJC Dangerous Goods\nJC Railway\nJC eCommerce\nJC Vendor\nClub\nBecome a Member\nBusiness Opportunity\nCompany Directory\nInquiry\nFind Agent\nCooperation Risk Protection\nRisk Member List\nOnline Claim\nRisk Prevention\nAssurance Introduction\nEvent\nGlobal Conference\nExhibiton\nIndustry Event\nJC Pay\nSettlement between members without any fees\nCollect money from your Chinese partner cheap and fast\nTools\nSchedule Plan\nContainer Tracking\nAMS Filing\nISF Filing\nACI(EM) Filing\nAFR Filing\nFMC Application\nJC Selection\nFreightsite Finder\nAbout Us\nAbout Us\nContact Us\nResources\nSuccess Story\nHelp Center\nCustomer\nMy Dashboard\nOpinion/Suggestion\nSign In\nSign up\n\n© 2025 jctrans', '2-20240208\n\nPost Inquiry\n\nGo to cart']"
NAC Nordic Air & Sea Cargo,Jonkoping - Sweden,Jonkoping,Sweden,"['FCL', 'LCL', 'Air Freight', 'Express', 'Customs Clearance']",https://www.jctrans.com/en/store/home/e3ef84c1d5075d7e63822c2ef0ff3931,13-Year,['VIP Level 1'],"Established in 1951, with more than 150 staffs.",True,2025-08-06T07:21:57.730772,1,"https://www.jctrans.com/en/membership/list/0-JC%20Elite,GCP?years=0&page=1",,,21020202000645,"['21020202000645', '2022004632']",http://www.nacairsea.com,"['http://www.nacairsea.com', 'https://www.nacairsea.com']","003887
13-Year
Subscribe

Established in 1951, with more than 150 staffs.

JC Elite
26-Dec-2026 
Chat Online
1-on-1 Inquiry
Service Scope
Company Profile
Attented History
Contact Us
Service Scope
Total Likes
4
Company Profile
Welcome to NAC – Your Nordic partner - In the Nordic countries, we offer logistics platform that improves your competitive edge! NAC Nordic Air & Sea Cargo improves the logistics solutions of its customers by offering quality air- and sea freight services","['003887\n13-Year\nSubscribe\n\nEstablished in 1951, with more than 150 staffs.\n\nJC Elite\n26-Dec-2026 \nChat Online\n1-on-1 Inquiry\nService Scope\nCompany Profile\nAttented History\nContact Us\nService Scope\nTotal Likes\n4\nCompany Profile\nWelcome to NAC – Your Nordic partner - In the Nordic countries, we offer logistics platform that improves your competitive edge! NAC Nordic Air & Sea Cargo improves the logistics solutions of its customers by offering quality air- and sea freight services', '1919. NAC Nordic Air & Sea Cargo takes pride in servicing many independent agents around the world', '16 offices strategically located in Sweden, Denmark, Finland, and Norway.\nNAC Nordic Air & Sea Cargo serves the world with direct services, express shipments, and consolidation by air freight', '18, P.O. Box 3022, SE-550 03,Jonkoping, Sweden\n\nEstablishment Time\n\n1951\n\nEnterprise Size\n\n101-500\n\nWebsite\n\nhttp://www', '2-20240208\n\nPost Inquiry\n\nGo to cart', 'P.O. Box 3022']"
BTS Logistics B.V.,Amsterdam - Netherlands,Amsterdam,Netherlands,"['FCL', 'LCL', 'Air Freight', 'Warehousing', 'Truck']",https://www.jctrans.com/en/store/home/d3a7a4106837d6d6074e9f90c39ced59,12-Year,['VIP Level 1'],,True,2025-08-06T07:21:57.844237,1,"https://www.jctrans.com/en/membership/list/0-JC%20Elite,GCP?years=0&page=1",,,21020202000645,"['21020202000645', '2022004632']",https://www.btslogistics.com,['https://www.btslogistics.com'],"104334
12-Year
Subscribe

JC Elite
6-Jan-2030 
Chat Online
1-on-1 Inquiry
Company Profile
Attented History
Contact Us
Branches
Service Scope
Total Likes
1
Company Profile
About Ocean Freight We provide reliable, cost-effective ocean freight services to & from all major ports in the world","['104334\n12-Year\nSubscribe\n\nJC Elite\n6-Jan-2030 \nChat Online\n1-on-1 Inquiry\nCompany Profile\nAttented History\nContact Us\nBranches\nService Scope\nTotal Likes\n1\nCompany Profile\nAbout Ocean Freight We provide reliable, cost-effective ocean freight services to & from all major ports in the world', '7 visibility of your shipments from point of origin till final destination', '40 1118 LM Schiphol Zuid-Oost Amsterdam The Netherlands\n\nEstablishment Time\n\n1984\n\nEnterprise Size\n\n51-100\n\nWebsite\n\nwww.btslogistics.com\n\nCertificates\nBTS Logistics B.V.Netherlands , , , ,\nMembership\nMembership introduction\nBenefits Overview\nJC Elite\nJC Premium\nJC Rising\nJC Project\nJC Dangerous Goods\nJC Railway\nJC eCommerce\nJC Vendor\nClub\nBecome a Member\nBusiness Opportunity\nCompany Directory\nInquiry\nFind Agent\nCooperation Risk Protection\nRisk Member List\nOnline Claim\nRisk Prevention\nAssurance Introduction\nEvent\nGlobal Conference\nExhibiton\nIndustry Event\nJC Pay\nSettlement between members without any fees\nCollect money from your Chinese partner cheap and fast\nTools\nSchedule Plan\nContainer Tracking\nAMS Filing\nISF Filing\nACI(EM) Filing\nAFR Filing\nFMC Application\nJC Selection\nFreightsite Finder\nAbout Us\nAbout Us\nContact Us\nResources\nSuccess Story\nHelp Center\nCustomer\nMy Dashboard\nOpinion/Suggestion\nSign In\nSign up\n\n© 2025 jctrans', '2-20240208\n\nPost Inquiry\n\nGo to cart']"
CU TRANSPORT INC.,Los Angeles - United States,Los Angeles,United States,"['Special Container', 'Hazardous Cargo', 'Warehousing', 'FBA', 'Customs Clearance']",https://www.jctrans.com/en/store/home/5edf56474b462dc8eeb977490c5175b3,12-Year,"['VIP Level 1', 'VIP Level 7', 'VIP Level 2']",One Stop Solution Your Transport Requirements,True,2025-08-06T07:21:57.947402,1,"https://www.jctrans.com/en/membership/list/0-JC%20Elite,GCP?years=0&page=1",,,21020202000645,"['21020202000645', '2022004632']",https://www.cutrans.com,['https://www.cutrans.com'],"106904
12-Year
Subscribe

One Stop Solution Your Transport Requirements

JC Elite
13-Aug-2026 
JC Projects
13-Aug-2026 
JC Dangerous Goods
13-Aug-2026 
Orders:1 US $7,000
Chat Online
1-on-1 Inquiry
Service Scope
Company Profile
Attented History
Contact Us
Service Scope
Total Likes
2
Company Profile
Established in 1997, CU Transport, Inc","['106904\n12-Year\nSubscribe\n\nOne Stop Solution Your Transport Requirements\n\nJC Elite\n13-Aug-2026 \nJC Projects\n13-Aug-2026 \nJC Dangerous Goods\n13-Aug-2026 \nOrders:1 US $7,000\nChat Online\n1-on-1 Inquiry\nService Scope\nCompany Profile\nAttented History\nContact Us\nService Scope\nTotal Likes\n2\nCompany Profile\nEstablished in 1997, CU Transport, Inc', '80,000 sq. ft. Warehouse. We accommodate the logistical requirements of every importer and exporter by offering a full range of door-to-door one stop logistics solutions!2005 America’s 500 Fast Growing Private Companies by INC', '100 Logistics Companies by INC.2009 100 Fast Growing Private Companies by Los Angeles Business Journal\n\nBasic Information\n\nLocation\n\nLos Angeles, United States\n\nAddress\n\n19885 HARRISON AVE Los Angeles, United States\n\nEstablishment Time\n\n1997\n\nEnterprise Size\n\n11-50\n\nWebsite\n\nwww.cutrans.com\n\nCertificates\nCU TRANSPORT INC.United States , , , , ,\nMembership\nMembership introduction\nBenefits Overview\nJC Elite\nJC Premium\nJC Rising\nJC Project\nJC Dangerous Goods\nJC Railway\nJC eCommerce\nJC Vendor\nClub\nBecome a Member\nBusiness Opportunity\nCompany Directory\nInquiry\nFind Agent\nCooperation Risk Protection\nRisk Member List\nOnline Claim\nRisk Prevention\nAssurance Introduction\nEvent\nGlobal Conference\nExhibiton\nIndustry Event\nJC Pay\nSettlement between members without any fees\nCollect money from your Chinese partner cheap and fast\nTools\nSchedule Plan\nContainer Tracking\nAMS Filing\nISF Filing\nACI(EM) Filing\nAFR Filing\nFMC Application\nJC Selection\nFreightsite Finder\nAbout Us\nAbout Us\nContact Us\nResources\nSuccess Story\nHelp Center\nCustomer\nMy Dashboard\nOpinion/Suggestion\nSign In\nSign up\n\n© 2025 jctrans', '2-20240208\n\nPost Inquiry\n\nGo to cart']"
LESAM INTERNATIONAL GROUP S.r.l.,Rome - Italy,Rome,Italy,"['FCL', 'LCL', 'Air Freight', 'Customs Clearance', 'Hazardous Cargo']",https://www.jctrans.com/en/store/home/378d0c1ec4e23b7b702211c94592a3b8,12-Year,['VIP Level 1'],Handling Goods With Care,True,2025-08-06T07:21:58.062893,1,"https://www.jctrans.com/en/membership/list/0-JC%20Elite,GCP?years=0&page=1",,,21020202000645,"['21020202000645', '2022004632']",https://www.lesaminternational.it,['https://www.lesaminternational.it'],"101754
12-Year
Subscribe

Handling Goods With Care

JC Elite
8-Mar-2029 
Chat Online
1-on-1 Inquiry
Service Scope
Company Profile
Attented History
Contact Us
Service Scope
Total Likes
10
····
Company Profile
Lesam was established since 1995","['101754\n12-Year\nSubscribe\n\nHandling Goods With Care\n\nJC Elite\n8-Mar-2029 \nChat Online\n1-on-1 Inquiry\nService Scope\nCompany Profile\nAttented History\nContact Us\nService Scope\nTotal Likes\n10\n····\nCompany Profile\nLesam was established since 1995', '9001 and GDP for pharmaceutical goods certified, IATA agent with 6 offices in the main italian cities. Our main purpose has always been to offer personalized services to our partners, fast reply and updates of the shipments.We can provide to our regular partner personalized track and trace system with your logo company where you can check the status and docs of your air, sea shipments.We have onbond warehouse in Milan, Genova, Rome and Naples. We are italian partner of SF Express for air shipments from Italy to China.\n\nBasic Information\n\nLocation\n\nRome, Italy\n\nAddress\n\nVIALE CHARLES LENORMANT 220\n\nEstablishment Time\n\n1995\n\nEnterprise Size\n\n11-50\n\nWebsite\n\nwww.lesaminternational.it\n\nCertificates\n\nCompany Picture\n\nLESAM INTERNATIONAL GROUP S.r.l.Italy , , , ,\nMembership\nMembership introduction\nBenefits Overview\nJC Elite\nJC Premium\nJC Rising\nJC Project\nJC Dangerous Goods\nJC Railway\nJC eCommerce\nJC Vendor\nClub\nBecome a Member\nBusiness Opportunity\nCompany Directory\nInquiry\nFind Agent\nCooperation Risk Protection\nRisk Member List\nOnline Claim\nRisk Prevention\nAssurance Introduction\nEvent\nGlobal Conference\nExhibiton\nIndustry Event\nJC Pay\nSettlement between members without any fees\nCollect money from your Chinese partner cheap and fast\nTools\nSchedule Plan\nContainer Tracking\nAMS Filing\nISF Filing\nACI(EM) Filing\nAFR Filing\nFMC Application\nJC Selection\nFreightsite Finder\nAbout Us\nAbout Us\nContact Us\nResources\nSuccess Story\nHelp Center\nCustomer\nMy Dashboard\nOpinion/Suggestion\nSign In\nSign up\n\n© 2025 jctrans', '2-20240208\n\nPost Inquiry\n\nGo to cart']"
PT. SHOKA CHANDRA ARMADA,Jakarta - Indonesia,Jakarta,Indonesia,"['FCL', 'Air Freight', 'LCL', 'Customs Clearance', 'Truck']",https://www.jctrans.com/en/store/home/9565ffbc6528e5c15b1c9ec9170dccba,12-Year,"['VIP Level 1', 'VIP Level 7', 'VIP Level 2']",,True,2025-08-06T07:21:58.152904,1,"https://www.jctrans.com/en/membership/list/0-JC%20Elite,GCP?years=0&page=1",,,21020202000645,"['21020202000645', '2022004632']",https://www.scadalogistics.com,['https://www.scadalogistics.com'],"150287
12-Year
Subscribe

JC Elite
24-Mar-2027 
JC Projects
22-Jan-2029 
JC Dangerous Goods
29-Aug-2026 
Chat Online
1-on-1 Inquiry
Company Profile
Contact Us
Service Scope
Total Likes
4
Company Profile
Scada Logistics are transportation specialists providing quality services in
International Freight Forwarding for Bulk, Containerized, Project shipments,
and, Domestic Air, Sea and Land Transportation, together with comprehensive
Logistics services in Indonesia that include Warehousing and Distribution Our
commitment is to provide consistent, innovative and value-added services to
our customers. We strongly believe in meeting the needs of our customers
and will always go beyond the norm in our service and business practices to
ensure excellence in delivery and results.
Our organization is made up of highly trained and professional members
equipped with the right competencies and proper facilities to ensure seamless
service. They are managed by a management team comprised of practitioners
with many years of hands-on commercial and operational experience not just
in Indonesia but in the South-east and East Asia.
SCADA was established by some experience passionate people in the logistic
field to dedicate itself in order to provide customer’s need and extend trade
activity link both worldwide and domestic","['150287\n12-Year\nSubscribe\n\nJC Elite\n24-Mar-2027 \nJC Projects\n22-Jan-2029 \nJC Dangerous Goods\n29-Aug-2026 \nChat Online\n1-on-1 Inquiry\nCompany Profile\nContact Us\nService Scope\nTotal Likes\n4\nCompany Profile\nScada Logistics are transportation specialists providing quality services in\nInternational Freight Forwarding for Bulk, Containerized, Project shipments,\nand, Domestic Air, Sea and Land Transportation, together with comprehensive\nLogistics services in Indonesia that include Warehousing and Distribution Our\ncommitment is to provide consistent, innovative and value-added services to\nour customers. We strongly believe in meeting the needs of our customers\nand will always go beyond the norm in our service and business practices to\nensure excellence in delivery and results.\nOur organization is made up of highly trained and professional members\nequipped with the right competencies and proper facilities to ensure seamless\nservice. They are managed by a management team comprised of practitioners\nwith many years of hands-on commercial and operational experience not just\nin Indonesia but in the South-east and East Asia.\nSCADA was established by some experience passionate people in the logistic\nfield to dedicate itself in order to provide customer’s need and extend trade\nactivity link both worldwide and domestic', '2016\n\nEnterprise Size\n\n101-500\n\nWebsite\n\nwww.scadalogistics.com\n\nCertificates\nPT. SHOKA CHANDRA ARMADAIndonesia , , , , , , ,\nMembership\nMembership introduction\nBenefits Overview\nJC Elite\nJC Premium\nJC Rising\nJC Project\nJC Dangerous Goods\nJC Railway\nJC eCommerce\nJC Vendor\nClub\nBecome a Member\nBusiness Opportunity\nCompany Directory\nInquiry\nFind Agent\nCooperation Risk Protection\nRisk Member List\nOnline Claim\nRisk Prevention\nAssurance Introduction\nEvent\nGlobal Conference\nExhibiton\nIndustry Event\nJC Pay\nSettlement between members without any fees\nCollect money from your Chinese partner cheap and fast\nTools\nSchedule Plan\nContainer Tracking\nAMS Filing\nISF Filing\nACI(EM) Filing\nAFR Filing\nFMC Application\nJC Selection\nFreightsite Finder\nAbout Us\nAbout Us\nContact Us\nResources\nSuccess Story\nHelp Center\nCustomer\nMy Dashboard\nOpinion/Suggestion\nSign In\nSign up\n\n© 2025 jctrans', '2-20240208\n\nPost Inquiry\n\nGo to cart']"
Sebi S.R.L.,Milan - Italy,Milan,Italy,"['Air Freight', 'Customs Clearance', 'Warehousing', 'Express', 'Truck']",https://www.jctrans.com/en/store/home/3b969aa6169fc33b0bdff966a5e45727,12-Year,"['VIP Level 1', 'VIP Level 7']",,True,2025-08-06T07:21:58.257040,1,"https://www.jctrans.com/en/membership/list/0-JC%20Elite,GCP?years=0&page=1",,,21020202000645,"['21020202000645', '2022004632']",https://www.sebigroup.com,['https://www.sebigroup.com'],"199991
12-Year
Subscribe

JC Elite
12-Jun-2028 
JC Projects
26-Mar-2027 
Orders:3 US $3,000+
Chat Online
1-on-1 Inquiry
Company Profile
Attented History
Contact Us
Service Scope
Total Likes
8
Company Profile
Sebi was born in 1974 as customs broker based at the the two Milan airports, Malpensa and Linate","['199991\n12-Year\nSubscribe\n\nJC Elite\n12-Jun-2028 \nJC Projects\n26-Mar-2027 \nOrders:3 US $3,000+\nChat Online\n1-on-1 Inquiry\nCompany Profile\nAttented History\nContact Us\nService Scope\nTotal Likes\n8\nCompany Profile\nSebi was born in 1974 as customs broker based at the the two Milan airports, Malpensa and Linate', '1999 Sebi moved its headquarters to the heart of the Ticino River Park, at 3 km from Malpensa airport. In the new location, we considerably expanded the working areas, setting up warehouses for customs clearance and other logistics activities but in particular for customs procedures of import/export of full containers', '2\n\nEstablishment Time\n\n1985\n\nEnterprise Size\n\n51-100\n\nWebsite\n\nwww.sebigroup.com\n\nCertificates\nSebi S.R.L.Italy , , , , , ,\nMembership\nMembership introduction\nBenefits Overview\nJC Elite\nJC Premium\nJC Rising\nJC Project\nJC Dangerous Goods\nJC Railway\nJC eCommerce\nJC Vendor\nClub\nBecome a Member\nBusiness Opportunity\nCompany Directory\nInquiry\nFind Agent\nCooperation Risk Protection\nRisk Member List\nOnline Claim\nRisk Prevention\nAssurance Introduction\nEvent\nGlobal Conference\nExhibiton\nIndustry Event\nJC Pay\nSettlement between members without any fees\nCollect money from your Chinese partner cheap and fast\nTools\nSchedule Plan\nContainer Tracking\nAMS Filing\nISF Filing\nACI(EM) Filing\nAFR Filing\nFMC Application\nJC Selection\nFreightsite Finder\nAbout Us\nAbout Us\nContact Us\nResources\nSuccess Story\nHelp Center\nCustomer\nMy Dashboard\nOpinion/Suggestion\nSign In\nSign up\n\n© 2025 jctrans', '2-20240208\n\nPost Inquiry\n\nGo to cart']"
"Shenzhen Haiyuan International Logisitics Co., Ltd.",Shenzhen - China,Shenzhen,China,"['FCL', 'LCL', 'Air Freight', 'Special Container']",https://www.jctrans.com/en/store/home/55d7e1bc2a9d265b525b58b49012f742,12-Year,['VIP Level 1'],Provide one-stop international logistics services,True,2025-08-06T07:21:58.359041,1,"https://www.jctrans.com/en/membership/list/0-JC%20Elite,GCP?years=0&page=1",,,21020202000645,"['21020202000645', '2022004632']",https://www.szhyocean.com,['https://www.szhyocean.com'],"888899
12-Year
Subscribe

Provide one-stop international logistics services

JC Elite
15-May-2028 
Chat Online
1-on-1 Inquiry
Service Scope
Company Profile
Attented History
Contact Us
Service Scope
Total Likes
23
····
Company Profile
Company Profile
Shenzhen Haiyuan International Forwarding Co","['888899\n12-Year\nSubscribe\n\nProvide one-stop international logistics services\n\nJC Elite\n15-May-2028 \nChat Online\n1-on-1 Inquiry\nService Scope\nCompany Profile\nAttented History\nContact Us\nService Scope\nTotal Likes\n23\n····\nCompany Profile\nCompany Profile\nShenzhen Haiyuan International Forwarding Co', '2008,Shenzhen Hai Yuan International Logistics Co.,Ltd headquarters was\nset up.\nIn 2008,Shenzhen Hai Yuan International Logistics Co', '2010,Shenzhen Hai Yuan International Logistics Co', '2012,Shenzhen Hai Yuan International Logistics Co', '2015,Shenzhen Hai Yuan International Logistics Co', '2016,Shenzhen Hai Yuan International Logistics Co', '2017,Shenzhen Hai Yuan International Logistics Co', '1001E MIDDLE STAIRS,JINYUAN BUILDING, NO.148,ZHONGSHAN ROAD,JINPING DISTRICT,SHANTOU, GUANGDONG,CHINA\n\nEstablishment Time\n\n2012\n\nEnterprise Size\n\n51-100\n\nWebsite\n\nwww.szhyocean.com\n\nCertificates\n\nCompany Picture\n\nShenzhen Haiyuan International Logisitics Co., Ltd.China , , ,\nMembership\nMembership introduction\nBenefits Overview\nJC Elite\nJC Premium\nJC Rising\nJC Project\nJC Dangerous Goods\nJC Railway\nJC eCommerce\nJC Vendor\nClub\nBecome a Member\nBusiness Opportunity\nCompany Directory\nInquiry\nFind Agent\nCooperation Risk Protection\nRisk Member List\nOnline Claim\nRisk Prevention\nAssurance Introduction\nEvent\nGlobal Conference\nExhibiton\nIndustry Event\nJC Pay\nSettlement between members without any fees\nCollect money from your Chinese partner cheap and fast\nTools\nSchedule Plan\nContainer Tracking\nAMS Filing\nISF Filing\nACI(EM) Filing\nAFR Filing\nFMC Application\nJC Selection\nFreightsite Finder\nAbout Us\nAbout Us\nContact Us\nResources\nSuccess Story\nHelp Center\nCustomer\nMy Dashboard\nOpinion/Suggestion\nSign In\nSign up\n\n© 2025 jctrans', '2-20240208\n\nPost Inquiry\n\nGo to cart']"
"TIMES CARGO LOGISTIC CO., LTD",Ho Chi Minh City - Vietnam,Ho Chi Minh City,Vietnam,"['Truck', 'FCL', 'Customs Clearance', 'Break Bulk', 'Special Container']",https://www.jctrans.com/en/store/home/f4826de08552d3be333f641a677961cf,12-Year,"['VIP Level 1', 'VIP Level 7']",,True,2025-08-06T07:21:58.476553,1,"https://www.jctrans.com/en/membership/list/0-JC%20Elite,GCP?years=0&page=1",,,21020202000645,"['21020202000645', '2022004632']",https://www.tcllogistic.com,['https://www.tcllogistic.com'],"899999
12-Year
Subscribe

JC Elite
3-Apr-2026 
JC Projects
13-Nov-2025 
Chat Online
1-on-1 Inquiry
Company Profile
Attented History
Contact Us
Service Scope
Total Likes
2
Company Profile
Times Cargo Logistic Co","['899999\n12-Year\nSubscribe\n\nJC Elite\n3-Apr-2026 \nJC Projects\n13-Nov-2025 \nChat Online\n1-on-1 Inquiry\nCompany Profile\nAttented History\nContact Us\nService Scope\nTotal Likes\n2\nCompany Profile\nTimes Cargo Logistic Co', '2010 in Ho Chi Minh City, Vietnam. With the continuous development, we expand business and are running 07 offices including over 170 staffs until now.\nWe are proud of having strong relationship with most of carrier that can give you the competitive rate to any destination in the world', '02 offices specialized in custom clearance, which will create  conditions to care your shipments. Meanwhile, some another forwarder have to use outsourcing service that may cause inconvenience in processing documents and increase the cost.\n-\tBecause of the different characteristics among factories, we provide  and tailored solution by allocating 01 team working at factory to assist for each specific problem\n-\tWe are in top 5 of handling transit cargo from Vietnam to Cambodia\n-\tHaving 01 office at Cambodia border to assist for any urgent case of “transit to Cambodia shipments”\n-\tWe are one of 21 local forwarders having USA FMC bond, which admit our legitimacy at America and we can sign direct contract with carriers\n-\tOur bill is under liability insurance at Bao Minh Cooperation\n-\tHave branch office at the North of Vietnam that can facilitate  for the North shipments\n-\tHave experience in handling Project, Breakbulk and Dangerous cargo\n\n\nBasic Information\n\nLocation\n\nHo Chi Minh City, Vietnam\n\nAddress\n\nYuson Tower, 273B Ton Dan Str', '15, Dist. 4 , Ho Chi Minh City, Viet Nam\n\nEstablishment Time\n\n2010\n\nEnterprise Size\n\n101-500\n\nWebsite\n\nwww.tcllogistic.com\n\nCertificates\nTIMES CARGO LOGISTIC CO., LTDVietnam , , , ,\nMembership\nMembership introduction\nBenefits Overview\nJC Elite\nJC Premium\nJC Rising\nJC Project\nJC Dangerous Goods\nJC Railway\nJC eCommerce\nJC Vendor\nClub\nBecome a Member\nBusiness Opportunity\nCompany Directory\nInquiry\nFind Agent\nCooperation Risk Protection\nRisk Member List\nOnline Claim\nRisk Prevention\nAssurance Introduction\nEvent\nGlobal Conference\nExhibiton\nIndustry Event\nJC Pay\nSettlement between members without any fees\nCollect money from your Chinese partner cheap and fast\nTools\nSchedule Plan\nContainer Tracking\nAMS Filing\nISF Filing\nACI(EM) Filing\nAFR Filing\nFMC Application\nJC Selection\nFreightsite Finder\nAbout Us\nAbout Us\nContact Us\nResources\nSuccess Story\nHelp Center\nCustomer\nMy Dashboard\nOpinion/Suggestion\nSign In\nSign up\n\n© 2025 jctrans', '2-20240208\n\nPost Inquiry\n\nGo to cart']"
TRANSMATIC EXPRESS LIMITED,Taipei - Taiwan-China,Taipei,Taiwan-China,"['LCL', 'Customs Clearance', 'Air Freight', 'FCL', 'Hazardous Cargo']",https://www.jctrans.com/en/store/home/d576fa1a93fd768dbdf60ef3a918c527,12-Year,['VIP Level 1'],,True,2025-08-06T07:21:58.571342,1,"https://www.jctrans.com/en/membership/list/0-JC%20Elite,GCP?years=0&page=1",,,21020202000645,"['21020202000645', '2022004632']",https://www.transmatic.com.tw,['https://www.transmatic.com.tw'],"988888
12-Year
Subscribe

JC Elite
4-Jan-2029 
Orders:2 US $300+
Chat Online
1-on-1 Inquiry
Company Profile
Attented History
Contact Us
Service Scope
Total Likes
4
Company Profile
We established in 1992 with 48 staffs and have Taipei HQ, Keelung, Taoyuan and Tainan branch","['988888\n12-Year\nSubscribe\n\nJC Elite\n4-Jan-2029 \nOrders:2 US $300+\nChat Online\n1-on-1 Inquiry\nCompany Profile\nAttented History\nContact Us\nService Scope\nTotal Likes\n4\nCompany Profile\nWe established in 1992 with 48 staffs and have Taipei HQ, Keelung, Taoyuan and Tainan branch', '2F, NO. 32, SEC1, CHENG GUNG ROAD, TAIPEI 115 , TAIWAN\n\nEstablishment Time\n\n1990\n\nEnterprise Size\n\n11-50\n\nWebsite\n\nwww.transmatic.com.tw\n\nCertificates\nTRANSMATIC EXPRESS LIMITEDTaiwan-China , , , ,\nMembership\nMembership introduction\nBenefits Overview\nJC Elite\nJC Premium\nJC Rising\nJC Project\nJC Dangerous Goods\nJC Railway\nJC eCommerce\nJC Vendor\nClub\nBecome a Member\nBusiness Opportunity\nCompany Directory\nInquiry\nFind Agent\nCooperation Risk Protection\nRisk Member List\nOnline Claim\nRisk Prevention\nAssurance Introduction\nEvent\nGlobal Conference\nExhibiton\nIndustry Event\nJC Pay\nSettlement between members without any fees\nCollect money from your Chinese partner cheap and fast\nTools\nSchedule Plan\nContainer Tracking\nAMS Filing\nISF Filing\nACI(EM) Filing\nAFR Filing\nFMC Application\nJC Selection\nFreightsite Finder\nAbout Us\nAbout Us\nContact Us\nResources\nSuccess Story\nHelp Center\nCustomer\nMy Dashboard\nOpinion/Suggestion\nSign In\nSign up\n\n© 2025 jctrans', '2-20240208\n\nPost Inquiry\n\nGo to cart']"
1UP CARGO,Sydney - Australia,Sydney,Australia,"['FCL', 'LCL', 'Hazardous Cargo', 'Air Freight', 'FBA']",https://www.jctrans.com/en/store/home/9db81d900ef753ab1a88ec197b79f99f,11-Year,['VIP Level 1'],,True,2025-08-06T07:21:58.644354,1,"https://www.jctrans.com/en/membership/list/0-JC%20Elite,GCP?years=0&page=1",,,21020202000645,"['21020202000645', '2022004632']",https://www.1upcargo.com,['https://www.1upcargo.com'],"1UP CARGO

Member ID 777722
11-Year
Subscribe

JC Elite
27-Feb-2030 
Chat Online
1-on-1 Inquiry
Company Profile
Attented History
Contact Us
Branches
Service Scope
Total Likes
1
Company Profile
1UP CARGO is a Family Owned and Operated Freight Forwarding and Customs Brokerage with its own offices across Australia and CanadaWe take ownership of the international Supply Chain to ensure that your clients get the best in class service that they demand, and we believe this keeps them coming back to engage with you, time after time. We pride ourselves on staying on the cutting edge of innovations in the International transport industry and remain agile enough to adapt to these changes as the opportunities present themselves. We believe in engaging all Stakeholders within the International supply chain, which include nurturing our relationships with Tier 1 Carrier contacts. These relationships ensure that we remain competitive whilst also being able to back-up our service commitment to our agents and clientsWe have a good mix of industry veterans and youth staff that can understand and relate to your clients’ needs, before they even know what they are","['1UP CARGO\n\nMember ID 777722\n11-Year\nSubscribe\n\nJC Elite\n27-Feb-2030 \nChat Online\n1-on-1 Inquiry\nCompany Profile\nAttented History\nContact Us\nBranches\nService Scope\nTotal Likes\n1\nCompany Profile\n1UP CARGO is a Family Owned and Operated Freight Forwarding and Customs Brokerage with its own offices across Australia and CanadaWe take ownership of the international Supply Chain to ensure that your clients get the best in class service that they demand, and we believe this keeps them coming back to engage with you, time after time. We pride ourselves on staying on the cutting edge of innovations in the International transport industry and remain agile enough to adapt to these changes as the opportunities present themselves. We believe in engaging all Stakeholders within the International supply chain, which include nurturing our relationships with Tier 1 Carrier contacts. These relationships ensure that we remain competitive whilst also being able to back-up our service commitment to our agents and clientsWe have a good mix of industry veterans and youth staff that can understand and relate to your clients’ needs, before they even know what they are', '1\tGeneral Freight Forwarding Export & Import Services 2\tCustoms and AQIS Brokerage 3\tTime Critical and Dangerous Goods Transport 4\tFBA and E-Commerce Fulfilments 5\tProject & OOG Cargo 6\tFood and Beverages Cargo 7\tPO Management8\t24/7 contact through email, whatsapp, wechat and skype and landlines\n\nBasic Information\n\nLocation\n\nSydney, Australia\n\nAddress\n\nLevel 4, 29 Kiora Road, Miranda, NSW 2228\n\nEstablishment Time\n\n2017\n\nEnterprise Size\n\n51-100\n\nWebsite\n\nwww', '1upcargo.com\n\nCertificates\n1UP CARGOAustralia , , , ,\nMembership\nMembership introduction\nBenefits Overview\nJC Elite\nJC Premium\nJC Rising\nJC Project\nJC Dangerous Goods\nJC Railway\nJC eCommerce\nJC Vendor\nClub\nBecome a Member\nBusiness Opportunity\nCompany Directory\nInquiry\nFind Agent\nCooperation Risk Protection\nRisk Member List\nOnline Claim\nRisk Prevention\nAssurance Introduction\nEvent\nGlobal Conference\nExhibiton\nIndustry Event\nJC Pay\nSettlement between members without any fees\nCollect money from your Chinese partner cheap and fast\nTools\nSchedule Plan\nContainer Tracking\nAMS Filing\nISF Filing\nACI(EM) Filing\nAFR Filing\nFMC Application\nJC Selection\nFreightsite Finder\nAbout Us\nAbout Us\nContact Us\nResources\nSuccess Story\nHelp Center\nCustomer\nMy Dashboard\nOpinion/Suggestion\nSign In\nSign up\n\n© 2025 jctrans', '2-20240208\n\nPost Inquiry\n\nGo to cart']"
1UP CARGO INC.,Toronto - Canada,Toronto,Canada,"['FBA', 'Truck', 'FCL', 'Customs Clearance', 'Air Freight']",https://www.jctrans.com/en/store/home/e34e5663e809a33c73c87555f96f4860,11-Year,['VIP Level 1'],1UP CARGO,True,2025-08-06T07:21:58.716237,1,"https://www.jctrans.com/en/membership/list/0-JC%20Elite,GCP?years=0&page=1",,,21020202000645,"['21020202000645', '2022004632']",https://www.1upcargo.com,['https://www.1upcargo.com'],"1UP CARGO INC.

Member ID 788887
11-Year
Subscribe

1UP CARGO

JC Elite
27-Feb-2030 
Orders:5 US $5,000+
Chat Online
1-on-1 Inquiry
Service Scope
Company Profile
Attented History
Contact Us
Branches
Service Scope
Total Likes
4
Company Profile
1UP CARGO is a family owned and operated freight forwarding and Customs brokerage with its own 10 offices across Australia ,Canada","['1UP CARGO INC.\n\nMember ID 788887\n11-Year\nSubscribe\n\n1UP CARGO\n\nJC Elite\n27-Feb-2030 \nOrders:5 US $5,000+\nChat Online\n1-on-1 Inquiry\nService Scope\nCompany Profile\nAttented History\nContact Us\nBranches\nService Scope\nTotal Likes\n4\nCompany Profile\n1UP CARGO is a family owned and operated freight forwarding and Customs brokerage with its own 10 offices across Australia ,Canada', '1UP CARGO, we take ownership of the international supply chain to ensure that your clients get the best service they demand, and keeps them coming back to engage with you, time after time. We pride ourselves on staying on the cutting edge of innovations in the transport industry and remain agile enough to adapt to these changes as the opportunities present themselves.\n\nBasic Information\n\nLocation\n\nToronto, Canada\n\nAddress\n\n1UP CARGO INC,20 Bay Street,11th Floor,TorontoON, M5J 2N8\n\nEstablishment Time\n\n2018\n\nEnterprise Size\n\n11-50\n\nWebsite\n\nwww.1upcargo.com\n\nCertificates\n\nCompany Picture\n\n1UP CARGO INC.Canada , , , ,\nMembership\nMembership introduction\nBenefits Overview\nJC Elite\nJC Premium\nJC Rising\nJC Project\nJC Dangerous Goods\nJC Railway\nJC eCommerce\nJC Vendor\nClub\nBecome a Member\nBusiness Opportunity\nCompany Directory\nInquiry\nFind Agent\nCooperation Risk Protection\nRisk Member List\nOnline Claim\nRisk Prevention\nAssurance Introduction\nEvent\nGlobal Conference\nExhibiton\nIndustry Event\nJC Pay\nSettlement between members without any fees\nCollect money from your Chinese partner cheap and fast\nTools\nSchedule Plan\nContainer Tracking\nAMS Filing\nISF Filing\nACI(EM) Filing\nAFR Filing\nFMC Application\nJC Selection\nFreightsite Finder\nAbout Us\nAbout Us\nContact Us\nResources\nSuccess Story\nHelp Center\nCustomer\nMy Dashboard\nOpinion/Suggestion\nSign In\nSign up\n\n© 2025 jctrans', '2-20240208\n\nPost Inquiry\n\nGo to cart']"
KINGSCOTE ROJAY LIMITED(KRL),London - United Kingdom,London,United Kingdom,"['FCL', 'LCL', 'Air Freight', 'Warehousing', 'Customs Clearance']",https://www.jctrans.com/en/store/home/f284b27b745410a9dc73af382525a8f1,11-Year,['VIP Level 1'],,True,2025-08-06T07:21:58.806651,1,"https://www.jctrans.com/en/membership/list/0-JC%20Elite,GCP?years=0&page=1",,,21020202000645,"['21020202000645', '2022004632']",https://www.kr-l.com,['https://www.kr-l.com'],"717777
11-Year
Subscribe

JC Elite
21-Mar-2029 
Chat Online
1-on-1 Inquiry
Company Profile
Attented History
Contact Us
Branches
Service Scope
Total Likes
4
Company Profile
KRL are an established freight forwarder with over 25 years of standing. We have 11 regional offices servicing all areas of the uk in airfreight, seafreight, rail, warehousing, 3PL, domestic and also have our own packing / case making divisions","['717777\n11-Year\nSubscribe\n\nJC Elite\n21-Mar-2029 \nChat Online\n1-on-1 Inquiry\nCompany Profile\nAttented History\nContact Us\nBranches\nService Scope\nTotal Likes\n4\nCompany Profile\nKRL are an established freight forwarder with over 25 years of standing. We have 11 regional offices servicing all areas of the uk in airfreight, seafreight, rail, warehousing, 3PL, domestic and also have our own packing / case making divisions', '3 Eastern Road Aldershot\n\nEstablishment Time\n\n1993\n\nEnterprise Size\n\n101-500\n\nWebsite\n\nwww', '2-20240208\n\nPost Inquiry\n\nGo to cart']"
Real Logistics Sp. z o.o. Sp. K.,Wroclaw - Poland,Wroclaw,Poland,"['FCL', 'Air Freight']",https://www.jctrans.com/en/store/home/35b57a047a86b34f3b5cea4cf1a3f31c,11-Year,['VIP Level 1'],Global Freight & Complete Local Logistics in EU,True,2025-08-06T07:23:35.573687,2,"https://www.jctrans.com/en/membership/list/0-JC%20Elite,GCP?years=0&page=2",jctrans@real-logistics.pl,['jctrans@real-logistics.pl'],21020202000645,"['21020202000645', '2022004632']",https://www.real-logistics.pl,['https://www.real-logistics.pl'],"3-Nov-2025 
Chat Online
1-on-1 Inquiry
Service Scope
Company Profile
Attented History
Contact Us
Service Scope
Total Likes
5
····
Company Profile
Global Freight & Complete Local Logistics in EU

Our slogan ""Global Freight & Complete Local Logistics in EU"" perfectly reflects our mission - combining global transport capabilities with comprehensive logistics support across Europe","['3-Nov-2025 \nChat Online\n1-on-1 Inquiry\nService Scope\nCompany Profile\nAttented History\nContact Us\nService Scope\nTotal Likes\n5\n····\nCompany Profile\nGlobal Freight & Complete Local Logistics in EU\n\nOur slogan ""Global Freight & Complete Local Logistics in EU"" perfectly reflects our mission - combining global transport capabilities with comprehensive logistics support across Europe', '1 and fiscal customs clearance procedures faster and more efficiently than standard processes. With our support, your goods clear borders quickly and compliantly.\n\nRoad Transport - First & Last Mile Across Europe\nWe provide reliable and fast road transport of FCL containers and LCL shipments throughout Europe, offering both first-mile and last-mile drayage with delivery times ranging from 24 to 72 hours', '20 Years of Experience\nFor over two decades, we have been handling international shipments:\nSea freight - servicing over 185 ports worldwide\nAir freight - including urgent time-critical shipments\nRail freight - especially between China and Europe (e', '7, ensuring continuous support and seamless logistics coordination.\n\nReal Logistics - Trust the experts who truly deliver\njctrans@real-logistics', '140A 54-429 Wroclaw, Poland\n\nEstablishment Time\n\n2006\n\nEnterprise Size\n\n101-500\n\nWebsite\n\nwww.real-logistics.pl\n\nCertificates\n\nCompany Picture\n\nReal Logistics Sp. z o.o. Sp. K.Poland , , , ,\nMembership\nMembership introduction\nBenefits Overview\nJC Elite\nJC Premium\nJC Rising\nJC Project\nJC Dangerous Goods\nJC Railway\nJC eCommerce\nJC Vendor\nClub\nBecome a Member\nBusiness Opportunity\nCompany Directory\nInquiry\nFind Agent\nCooperation Risk Protection\nRisk Member List\nOnline Claim\nRisk Prevention\nAssurance Introduction\nEvent\nGlobal Conference\nExhibiton\nIndustry Event\nJC Pay\nSettlement between members without any fees\nCollect money from your Chinese partner cheap and fast\nTools\nSchedule Plan\nContainer Tracking\nAMS Filing\nISF Filing\nACI(EM) Filing\nAFR Filing\nFMC Application\nJC Selection\nFreightsite Finder\nAbout Us\nAbout Us\nContact Us\nResources\nSuccess Story\nHelp Center\nCustomer\nMy Dashboard\nOpinion/Suggestion\nSign In\nSign up\n\n© 2025 jctrans', '2-20240208\n\nPost Inquiry\n\nGo to cart']"
"RUTAIR INTERNATIONAL FORWARDERS, S.L.",Madrid - Spain,Madrid,Spain,"['FCL', 'LCL', 'Special Container', 'Air Freight', 'Customs Clearance']",https://www.jctrans.com/en/store/home/d1eff42021a7d596183ccccdb576ab89,11-Year,"['VIP Level 1', 'VIP Level 2']",We can distribute your products in any area,True,2025-08-06T07:23:35.656793,2,"https://www.jctrans.com/en/membership/list/0-JC%20Elite,GCP?years=0&page=2",,,21020202000645,"['21020202000645', '2022004632']",https://www.rutair.es,['https://www.rutair.es'],"311113
11-Year
Subscribe

We can distribute your products in any area

JC Elite
18-Jul-2027 
JC Dangerous Goods
21-Jul-2026 
Chat Online
1-on-1 Inquiry
Service Scope
Company Profile
Attented History
Contact Us
Service Scope
Total Likes
3
Company Profile
Found in 1995，as cargo agent for sea and air freight, RUTAIR INTERNATIONAL FORWARDERS, has developed and intense activity in the world of international cargo transport","['311113\n11-Year\nSubscribe\n\nWe can distribute your products in any area\n\nJC Elite\n18-Jul-2027 \nJC Dangerous Goods\n21-Jul-2026 \nChat Online\n1-on-1 Inquiry\nService Scope\nCompany Profile\nAttented History\nContact Us\nService Scope\nTotal Likes\n3\nCompany Profile\nFound in 1995，as cargo agent for sea and air freight, RUTAIR INTERNATIONAL FORWARDERS, has developed and intense activity in the world of international cargo transport', '10-2a PLANTA-OFIC. Madrid, Spain\n\nEstablishment Time\n\n1995\n\nEnterprise Size\n\n11-50\n\nWebsite\n\nwww.rutair.es.\n\nCertificates\n\nCompany Picture\n\nRUTAIR INTERNATIONAL FORWARDERS, S.L.Spain , , , , ,\nMembership\nMembership introduction\nBenefits Overview\nJC Elite\nJC Premium\nJC Rising\nJC Project\nJC Dangerous Goods\nJC Railway\nJC eCommerce\nJC Vendor\nClub\nBecome a Member\nBusiness Opportunity\nCompany Directory\nInquiry\nFind Agent\nCooperation Risk Protection\nRisk Member List\nOnline Claim\nRisk Prevention\nAssurance Introduction\nEvent\nGlobal Conference\nExhibiton\nIndustry Event\nJC Pay\nSettlement between members without any fees\nCollect money from your Chinese partner cheap and fast\nTools\nSchedule Plan\nContainer Tracking\nAMS Filing\nISF Filing\nACI(EM) Filing\nAFR Filing\nFMC Application\nJC Selection\nFreightsite Finder\nAbout Us\nAbout Us\nContact Us\nResources\nSuccess Story\nHelp Center\nCustomer\nMy Dashboard\nOpinion/Suggestion\nSign In\nSign up\n\n© 2025 jctrans', '2-20240208\n\nPost Inquiry\n\nGo to cart']"
"SEAMAX FREIGHT INTERNATIONAL, INC",Los Angeles - United States,Los Angeles,United States,"['FCL', 'LCL', 'Air Freight', 'Truck', 'Customs Clearance']",https://www.jctrans.com/en/store/home/2fac86fab9f5d79375c469858e4482ce,11-Year,['VIP Level 1'],,True,2025-08-06T07:23:35.752398,2,"https://www.jctrans.com/en/membership/list/0-JC%20Elite,GCP?years=0&page=2",,,21020202000645,"['21020202000645', '2022004632']",https://www.seamaxfreight.com,['https://www.seamaxfreight.com'],"878888
11-Year
Subscribe

JC Elite
10-Jul-2033 
Chat Online
1-on-1 Inquiry
Company Profile
Attented History
Contact Us
Service Scope
Total Likes
2
Company Profile
Seamax Freight International is an international logistics company with headquarters in Cerritos, CA. At Seamax Freight, we understand how valuable your cargo is. The time it takes to source your product, place your purchase order, wait for production and finally shipping your shipment to deliver to your customers are all part of the supply chain.

Basic Information

Location

Los Angeles, United States

Address

13875 Cerritos Corporate Drive, Unit B, Cerritos, CA 90703,Los Angeles USA

Establishment Time

2018

Enterprise Size

11-50

Website

www.seamaxfreight.com

Certificates
SEAMAX FREIGHT INTERNATIONAL, INCUnited States , , , ,
Membership
Membership introduction
Benefits Overview
JC Elite
JC Premium
JC Rising
JC Project
JC Dangerous Goods
JC Railway
JC eCommerce
JC Vendor
Club
Become a Member
Business Opportunity
Company Directory
Inquiry
Find Agent
Cooperation Risk Protection
Risk Member List
Online Claim
Risk Prevention
Assurance Introduction
Event
Global Conference
Exhibiton
Industry Event
JC Pay
Settlement between members without any fees
Collect money from your Chinese partner cheap and fast
Tools
Schedule Plan
Container Tracking
AMS Filing
ISF Filing
ACI(EM) Filing
AFR Filing
FMC Application
JC Selection
Freightsite Finder
About Us
About Us
Contact Us
Resources
Success Story
Help Center
Customer
My Dashboard
Opinion/Suggestion
Sign In
Sign up

© 2025 jctrans","['878888\n11-Year\nSubscribe\n\nJC Elite\n10-Jul-2033 \nChat Online\n1-on-1 Inquiry\nCompany Profile\nAttented History\nContact Us\nService Scope\nTotal Likes\n2\nCompany Profile\nSeamax Freight International is an international logistics company with headquarters in Cerritos, CA. At Seamax Freight, we understand how valuable your cargo is. The time it takes to source your product, place your purchase order, wait for production and finally shipping your shipment to deliver to your customers are all part of the supply chain.\n\nBasic Information\n\nLocation\n\nLos Angeles, United States\n\nAddress\n\n13875 Cerritos Corporate Drive, Unit B, Cerritos, CA 90703,Los Angeles USA\n\nEstablishment Time\n\n2018\n\nEnterprise Size\n\n11-50\n\nWebsite\n\nwww.seamaxfreight.com\n\nCertificates\nSEAMAX FREIGHT INTERNATIONAL, INCUnited States , , , ,\nMembership\nMembership introduction\nBenefits Overview\nJC Elite\nJC Premium\nJC Rising\nJC Project\nJC Dangerous Goods\nJC Railway\nJC eCommerce\nJC Vendor\nClub\nBecome a Member\nBusiness Opportunity\nCompany Directory\nInquiry\nFind Agent\nCooperation Risk Protection\nRisk Member List\nOnline Claim\nRisk Prevention\nAssurance Introduction\nEvent\nGlobal Conference\nExhibiton\nIndustry Event\nJC Pay\nSettlement between members without any fees\nCollect money from your Chinese partner cheap and fast\nTools\nSchedule Plan\nContainer Tracking\nAMS Filing\nISF Filing\nACI(EM) Filing\nAFR Filing\nFMC Application\nJC Selection\nFreightsite Finder\nAbout Us\nAbout Us\nContact Us\nResources\nSuccess Story\nHelp Center\nCustomer\nMy Dashboard\nOpinion/Suggestion\nSign In\nSign up\n\n© 2025 jctrans', '2-20240208\n\nPost Inquiry\n\nGo to cart']"
SINOOCEAN GROUP LTD.,Shenzhen - China,Shenzhen,China,"['FCL', 'LCL', 'Special Container', 'Truck']",https://www.jctrans.com/en/store/home/3dce994362a56c33925dc63bdae5b213,11-Year,['VIP Level 1'],Focus on international freight forwarding services,True,2025-08-06T07:23:35.825484,2,"https://www.jctrans.com/en/membership/list/0-JC%20Elite,GCP?years=0&page=2",,,21020202000645,"['21020202000645', '2022004632']",https://www.sinooceancn.com,['https://www.sinooceancn.com'],"100258
11-Year
Subscribe

Focus on international freight forwarding services

JC Elite
20-Oct-2027 
Orders:4 US $36,000+
Chat Online
1-on-1 Inquiry
Service Scope
Company Profile
Attented History
Contact Us
Service Scope
Total Likes
9
····
Company Profile
SINOOCEAN GROUP LTD","['100258\n11-Year\nSubscribe\n\nFocus on international freight forwarding services\n\nJC Elite\n20-Oct-2027 \nOrders:4 US $36,000+\nChat Online\n1-on-1 Inquiry\nService Scope\nCompany Profile\nAttented History\nContact Us\nService Scope\nTotal Likes\n9\n····\nCompany Profile\nSINOOCEAN GROUP LTD', '1999. Have more than 600 staffs so far. As an International Logistics forwarder, Sino-Ocean got formal approval by Chinese Foreign Trade and Economic Cooperation Ministry, and got the qualification of NVOCC (MOC-NV 02462) by Ministry of Transportation of People’s Republic ofChina', '600 staffs in our company.\n\nBasic Information\n\nLocation\n\nShenzhen, China\n\nAddress\n\n4F,WEST BLOCK,BUILDING 428,NO.43 BAGUA ROAD,FUTIAN DISTRICT , SHENZHEN CITY,GUANGDONG PROVINCE,PRC.\n\nEstablishment Time\n\n2004\n\nEnterprise Size\n\n500-1000\n\nWebsite\n\nwww', '2-20240208\n\nPost Inquiry\n\nGo to cart']"
Golden Bridge International Inc,Los Angeles - United States,Los Angeles,United States,"['Hazardous Cargo', 'Customs Clearance', 'Air Freight', 'Warehousing', 'Special Container']",https://www.jctrans.com/en/store/home/cab6cca9b57a9dc03e56b56e2fc69a9e,10-Year,['VIP Level 1'],27 years history with own warehouse and truck,True,2025-08-06T07:23:35.934922,2,"https://www.jctrans.com/en/membership/list/0-JC%20Elite,GCP?years=0&page=2",,,21020202000645,"['21020202000645', '2022004632']",https://www.goldenbridge-intl.com,['https://www.goldenbridge-intl.com'],"105694
10-Year
Subscribe

27 years history with own warehouse and truck

JC Elite
19-Mar-2028 
Chat Online
1-on-1 Inquiry
Service Scope
Company Profile
Attented History
Contact Us
Service Scope
Total Likes
12
····
Company Profile
Founded in 1999 by new immigrants with a true passion for international trade, Golden Bridge's mission has always been to be the preferred freight forwarder serving and facilitating the logistics needs of other entrepreneurs and helping them realize their business’s full potential on a global scale","[""105694\n10-Year\nSubscribe\n\n27 years history with own warehouse and truck\n\nJC Elite\n19-Mar-2028 \nChat Online\n1-on-1 Inquiry\nService Scope\nCompany Profile\nAttented History\nContact Us\nService Scope\nTotal Likes\n12\n····\nCompany Profile\nFounded in 1999 by new immigrants with a true passion for international trade, Golden Bridge's mission has always been to be the preferred freight forwarder serving and facilitating the logistics needs of other entrepreneurs and helping them realize their business’s full potential on a global scale"", '733 9th Ave , City of Industry\n\nEstablishment Time\n\n2015\n\nEnterprise Size\n\n51-100\n\nWebsite\n\nwww.goldenbridge-intl.com\n\nCertificates\n\nCompany Picture\n\nGolden Bridge International IncUnited States , , , , , ,\nMembership\nMembership introduction\nBenefits Overview\nJC Elite\nJC Premium\nJC Rising\nJC Project\nJC Dangerous Goods\nJC Railway\nJC eCommerce\nJC Vendor\nClub\nBecome a Member\nBusiness Opportunity\nCompany Directory\nInquiry\nFind Agent\nCooperation Risk Protection\nRisk Member List\nOnline Claim\nRisk Prevention\nAssurance Introduction\nEvent\nGlobal Conference\nExhibiton\nIndustry Event\nJC Pay\nSettlement between members without any fees\nCollect money from your Chinese partner cheap and fast\nTools\nSchedule Plan\nContainer Tracking\nAMS Filing\nISF Filing\nACI(EM) Filing\nAFR Filing\nFMC Application\nJC Selection\nFreightsite Finder\nAbout Us\nAbout Us\nContact Us\nResources\nSuccess Story\nHelp Center\nCustomer\nMy Dashboard\nOpinion/Suggestion\nSign In\nSign up\n\n© 2025 jctrans', '2-20240208\n\nPost Inquiry\n\nGo to cart']"
1UP Cargo Limited,Auckland - New Zealand,Auckland,New Zealand,"['FCL', 'LCL', 'Reefer Container', 'Air Freight', 'Customs Clearance']",https://www.jctrans.com/en/store/home/2661fb53b6f3b2b15ac3e1f68d4d9c4e,10-Year,['VIP Level 1'],Integrated Freight Services for Modern Businesses,True,2025-08-06T07:23:36.175221,2,"https://www.jctrans.com/en/membership/list/0-JC%20Elite,GCP?years=0&page=2",,,21020202000645,"['21020202000645', '2022004632']",https://www.1upcargo.com,['https://www.1upcargo.com'],"1UP Cargo Limited

Member ID 777799
10-Year
Subscribe

Integrated Freight Services for Modern Businesses

JC Elite
27-Feb-2031 
Chat Online
1-on-1 Inquiry
Service Scope
Company Profile
Attented History
Contact Us
Branches
Service Scope
Total Likes
1
Company Profile
1UP CARGO is a Family Owned and Operated Freight Forwarding and Customs Brokerage with its own offices across Australia and Canada. We take ownership of the international Supply Chain to ensure that your clients get the best-in-class service that they demand, and we believe this keeps them coming back to engage with you, time after time. We pride ourselves on staying on the cutting edge of innovations in the international transport industry and remain agile enough to adapt to these changes as the opportunities present themselves. We believe in engaging all Stakeholders within the International supply chain, which include nurturing our relationships with Tier 1 Carrier contacts. These relationships ensure that we remain competitive whilst also being able to back-up our service commitment to our agents and clients. We have a good mix of industry veterans and youth staff that can understand and relate to your clients’ needs, before they even know what they are","['1UP Cargo Limited\n\nMember ID 777799\n10-Year\nSubscribe\n\nIntegrated Freight Services for Modern Businesses\n\nJC Elite\n27-Feb-2031 \nChat Online\n1-on-1 Inquiry\nService Scope\nCompany Profile\nAttented History\nContact Us\nBranches\nService Scope\nTotal Likes\n1\nCompany Profile\n1UP CARGO is a Family Owned and Operated Freight Forwarding and Customs Brokerage with its own offices across Australia and Canada. We take ownership of the international Supply Chain to ensure that your clients get the best-in-class service that they demand, and we believe this keeps them coming back to engage with you, time after time. We pride ourselves on staying on the cutting edge of innovations in the international transport industry and remain agile enough to adapt to these changes as the opportunities present themselves. We believe in engaging all Stakeholders within the International supply chain, which include nurturing our relationships with Tier 1 Carrier contacts. These relationships ensure that we remain competitive whilst also being able to back-up our service commitment to our agents and clients. We have a good mix of industry veterans and youth staff that can understand and relate to your clients’ needs, before they even know what they are', '1\tGeneral Freight Forwarding Export & Import Services 2\tCustoms and AQIS Brokerage 3\tTime Critical and Dangerous Goods Transport 4\tFBA and E-Commerce Fulfilments 5\tProject & OOG Cargo 6\tFood and Beverages Cargo 7\tPO Management8\t24/7 contact through email, WhatsApp, WeChat and skype and landlines', '1UP Cargo 39 Bishop Dunn Place Botany 2013 Auckland, New Zealand\n\nEstablishment Time\n\n2018\n\nEnterprise Size\n\n51-100\n\nWebsite\n\nwww.1upcargo.com\n\nCertificates\n\nCompany Picture\n\n1UP Cargo LimitedNew Zealand , , , ,\nMembership\nMembership introduction\nBenefits Overview\nJC Elite\nJC Premium\nJC Rising\nJC Project\nJC Dangerous Goods\nJC Railway\nJC eCommerce\nJC Vendor\nClub\nBecome a Member\nBusiness Opportunity\nCompany Directory\nInquiry\nFind Agent\nCooperation Risk Protection\nRisk Member List\nOnline Claim\nRisk Prevention\nAssurance Introduction\nEvent\nGlobal Conference\nExhibiton\nIndustry Event\nJC Pay\nSettlement between members without any fees\nCollect money from your Chinese partner cheap and fast\nTools\nSchedule Plan\nContainer Tracking\nAMS Filing\nISF Filing\nACI(EM) Filing\nAFR Filing\nFMC Application\nJC Selection\nFreightsite Finder\nAbout Us\nAbout Us\nContact Us\nResources\nSuccess Story\nHelp Center\nCustomer\nMy Dashboard\nOpinion/Suggestion\nSign In\nSign up\n\n© 2025 jctrans', '2-20240208\n\nPost Inquiry\n\nGo to cart']"
DAXEL ITALY SRL,Milan - Italy,Milan,Italy,"['FCL', 'LCL', 'Hazardous Cargo', 'Break Bulk', 'Air Freight']",https://www.jctrans.com/en/store/home/9b62cce921bef9893c2036138a38991c,10-Year,['VIP Level 1'],,True,2025-08-06T07:23:36.275876,2,"https://www.jctrans.com/en/membership/list/0-JC%20Elite,GCP?years=0&page=2",,,21020202000645,"['21020202000645', '2022004632']",https://www.daxel-log.com,['https://www.daxel-log.com'],"106129
10-Year
Subscribe

JC Elite
2-Jun-2028 
Chat Online
1-on-1 Inquiry
Company Profile
Attented History
Contact Us
Service Scope
Total Likes
1
Company Profile
Daxel Italy Srl offers competencies in the sector of international shipments with convenient tariffs all over the world","['106129\n10-Year\nSubscribe\n\nJC Elite\n2-Jun-2028 \nChat Online\n1-on-1 Inquiry\nCompany Profile\nAttented History\nContact Us\nService Scope\nTotal Likes\n1\nCompany Profile\nDaxel Italy Srl offers competencies in the sector of international shipments with convenient tariffs all over the world', '23, 20134 Milano Italy\n\nEstablishment Time\n\n2013\n\nEnterprise Size\n\n11-50\n\nWebsite\n\nwww.daxel-log.com\n\nCertificates\nDAXEL ITALY SRLItaly , , , ,\nMembership\nMembership introduction\nBenefits Overview\nJC Elite\nJC Premium\nJC Rising\nJC Project\nJC Dangerous Goods\nJC Railway\nJC eCommerce\nJC Vendor\nClub\nBecome a Member\nBusiness Opportunity\nCompany Directory\nInquiry\nFind Agent\nCooperation Risk Protection\nRisk Member List\nOnline Claim\nRisk Prevention\nAssurance Introduction\nEvent\nGlobal Conference\nExhibiton\nIndustry Event\nJC Pay\nSettlement between members without any fees\nCollect money from your Chinese partner cheap and fast\nTools\nSchedule Plan\nContainer Tracking\nAMS Filing\nISF Filing\nACI(EM) Filing\nAFR Filing\nFMC Application\nJC Selection\nFreightsite Finder\nAbout Us\nAbout Us\nContact Us\nResources\nSuccess Story\nHelp Center\nCustomer\nMy Dashboard\nOpinion/Suggestion\nSign In\nSign up\n\n© 2025 jctrans', '2-20240208\n\nPost Inquiry\n\nGo to cart']"
EXCESS International,Paris - France,Paris,France,"['FCL', 'Air Freight', 'Warehousing']",https://www.jctrans.com/en/store/home/eb53ed0f290423f844dd7d5a9fe87749,10-Year,['VIP Level 1'],,True,2025-08-06T07:23:36.364666,2,"https://www.jctrans.com/en/membership/list/0-JC%20Elite,GCP?years=0&page=2",,,21020202000645,"['21020202000645', '2022004632']",https://www.excess.fr,['https://www.excess.fr'],"778888
10-Year
Subscribe

JC Elite
8-Feb-2026 
Chat Online
1-on-1 Inquiry
Company Profile
Attented History
Contact Us
Service Scope
Total Likes
12
····
Company Profile
EXCESS International is an Independent forwarding company in France as IATA member and AEO licensed customs broker","['778888\n10-Year\nSubscribe\n\nJC Elite\n8-Feb-2026 \nChat Online\n1-on-1 Inquiry\nCompany Profile\nAttented History\nContact Us\nService Scope\nTotal Likes\n12\n····\nCompany Profile\nEXCESS International is an Independent forwarding company in France as IATA member and AEO licensed customs broker', '1994, EXCESS continues developping our strong abilities in all aspects in transport by air as well as by sea. We have now our own offices in CDG, le HAVRE, Lyon and Marseille. We are  certificated ISO9000 and RSE.  Our experienced team always provides most professional and efficient solutions to our clients in differents fields such as oil & gas industrial and automobile, in exhibitions, events shipments,  chemical, dangerous goods, OOG project cargo and E commerce business', '2023, we opened our link office in Singapore to serve better our agents and clients in Asia.\n\nBasic Information\n\nLocation\n\nParis, France\n\nAddress\n\nZAC du Moulin, 5 Rue de Meunier\n\nEstablishment Time\n\n1992\n\nEnterprise Size\n\n51-100\n\nWebsite\n\nwww.excess.fr\n\nCertificates\nEXCESS InternationalFrance , ,\nMembership\nMembership introduction\nBenefits Overview\nJC Elite\nJC Premium\nJC Rising\nJC Project\nJC Dangerous Goods\nJC Railway\nJC eCommerce\nJC Vendor\nClub\nBecome a Member\nBusiness Opportunity\nCompany Directory\nInquiry\nFind Agent\nCooperation Risk Protection\nRisk Member List\nOnline Claim\nRisk Prevention\nAssurance Introduction\nEvent\nGlobal Conference\nExhibiton\nIndustry Event\nJC Pay\nSettlement between members without any fees\nCollect money from your Chinese partner cheap and fast\nTools\nSchedule Plan\nContainer Tracking\nAMS Filing\nISF Filing\nACI(EM) Filing\nAFR Filing\nFMC Application\nJC Selection\nFreightsite Finder\nAbout Us\nAbout Us\nContact Us\nResources\nSuccess Story\nHelp Center\nCustomer\nMy Dashboard\nOpinion/Suggestion\nSign In\nSign up\n\n© 2025 jctrans', '2-20240208\n\nPost Inquiry\n\nGo to cart']"
Global Alliance Logistics Pte Ltd,Singapore - Singapore,Singapore,Singapore,"['Special Container', 'Hazardous Cargo', 'Break Bulk', 'Air Freight', 'Warehousing']",https://www.jctrans.com/en/store/home/9b23b8f01ef168e9c7d3bcfe9626ca7f,10-Year,['VIP Level 1'],,True,2025-08-06T07:23:36.447178,2,"https://www.jctrans.com/en/membership/list/0-JC%20Elite,GCP?years=0&page=2",,,21020202000645,"['21020202000645', '2022004632']",https://www.globalalliancelog.com,['https://www.globalalliancelog.com'],"888828
10-Year
Subscribe

JC Elite
21-Feb-2026 
Orders:3 US $1,000+
Chat Online
1-on-1 Inquiry
Company Profile
Attented History
Contact Us
Service Scope
Company Profile
Global Alliance Logistics Pte Ltd is a Singapore company that offers international transportation services and logistics solutions from and to all location in the world","['888828\n10-Year\nSubscribe\n\nJC Elite\n21-Feb-2026 \nOrders:3 US $1,000+\nChat Online\n1-on-1 Inquiry\nCompany Profile\nAttented History\nContact Us\nService Scope\nCompany Profile\nGlobal Alliance Logistics Pte Ltd is a Singapore company that offers international transportation services and logistics solutions from and to all location in the world', '37 Tannery Lane #04-03 Singapore 347790\n\nEstablishment Time\n\n2013\n\nEnterprise Size\n\n51-100\n\nWebsite\n\nwww', '2-20240208\n\nPost Inquiry\n\nGo to cart']"
INTERFRACHT Air-Sea-Land Service GmbH,Hamburg - Germany,Hamburg,Germany,"['FCL', 'LCL', 'Air Freight', 'Warehousing', 'Special Container']",https://www.jctrans.com/en/store/home/6a7500d7ddd0307b716dd5fa7af48ccb,10-Year,['VIP Level 1'],,True,2025-08-06T07:23:36.515451,2,"https://www.jctrans.com/en/membership/list/0-JC%20Elite,GCP?years=0&page=2",,,21020202000645,"['21020202000645', '2022004632']",https://www.interfracht.de,['https://www.interfracht.de'],"50 years we provide professional logistic solutions. International freight forwarding means to us, to take care of a fast and reliable transport chain. A smoothly ride around the globe, based on continuous development. Interfracht is your contact when it comes to complex requirements for freight forwarding","['50 years we provide professional logistic solutions. International freight forwarding means to us, to take care of a fast and reliable transport chain. A smoothly ride around the globe, based on continuous development. Interfracht is your contact when it comes to complex requirements for freight forwarding', '16, 21079 Hamburg\n\nEstablishment Time\n\n1989\n\nEnterprise Size\n\n101-500\n\nWebsite\n\nwww.interfracht.de\n\nCertificates\nINTERFRACHT Air-Sea-Land Service GmbHGermany , , , ,\nMembership\nMembership introduction\nBenefits Overview\nJC Elite\nJC Premium\nJC Rising\nJC Project\nJC Dangerous Goods\nJC Railway\nJC eCommerce\nJC Vendor\nClub\nBecome a Member\nBusiness Opportunity\nCompany Directory\nInquiry\nFind Agent\nCooperation Risk Protection\nRisk Member List\nOnline Claim\nRisk Prevention\nAssurance Introduction\nEvent\nGlobal Conference\nExhibiton\nIndustry Event\nJC Pay\nSettlement between members without any fees\nCollect money from your Chinese partner cheap and fast\nTools\nSchedule Plan\nContainer Tracking\nAMS Filing\nISF Filing\nACI(EM) Filing\nAFR Filing\nFMC Application\nJC Selection\nFreightsite Finder\nAbout Us\nAbout Us\nContact Us\nResources\nSuccess Story\nHelp Center\nCustomer\nMy Dashboard\nOpinion/Suggestion\nSign In\nSign up\n\n© 2025 jctrans', '2-20240208\n\nPost Inquiry\n\nGo to cart']"
SPEDITION,New Delhi - India,New Delhi,India,"['Hazardous Cargo', 'FCL', 'Customs Clearance', 'LCL', 'Air Freight']",https://www.jctrans.com/en/store/home/9ce51a6372a8122e9e1da11a3f796f30,10-Year,['VIP Level 1'],,True,2025-08-06T07:23:36.581099,2,"https://www.jctrans.com/en/membership/list/0-JC%20Elite,GCP?years=0&page=2",,,21020202000645,"['21020202000645', '2022004632']",https://www.speditionindia.com,['https://www.speditionindia.com'],"111865
10-Year
Subscribe

JC Elite
3-Jun-2031 
Orders:9 US $49,000+
Chat Online
1-on-1 Inquiry
Company Profile
Attented History
Contact Us
Service Scope
Total Likes
2
Company Profile
At Spedition we have started our journey in April 2018, but we have more than 15 years of experience in the foundation of our organization, which we have successfully achieved by completing more than International 1000 Exhibition Logistics & other international projects","['111865\n10-Year\nSubscribe\n\nJC Elite\n3-Jun-2031 \nOrders:9 US $49,000+\nChat Online\n1-on-1 Inquiry\nCompany Profile\nAttented History\nContact Us\nService Scope\nTotal Likes\n2\nCompany Profile\nAt Spedition we have started our journey in April 2018, but we have more than 15 years of experience in the foundation of our organization, which we have successfully achieved by completing more than International 1000 Exhibition Logistics & other international projects', '34, Sector-64, Noida-201309, Uttar Pradesh, INDIA\n\nEstablishment Time\n\n2018\n\nEnterprise Size\n\n51-100\n\nWebsite\n\nwww.speditionindia.com\n\nCertificates\nSPEDITIONIndia , , , ,\nMembership\nMembership introduction\nBenefits Overview\nJC Elite\nJC Premium\nJC Rising\nJC Project\nJC Dangerous Goods\nJC Railway\nJC eCommerce\nJC Vendor\nClub\nBecome a Member\nBusiness Opportunity\nCompany Directory\nInquiry\nFind Agent\nCooperation Risk Protection\nRisk Member List\nOnline Claim\nRisk Prevention\nAssurance Introduction\nEvent\nGlobal Conference\nExhibiton\nIndustry Event\nJC Pay\nSettlement between members without any fees\nCollect money from your Chinese partner cheap and fast\nTools\nSchedule Plan\nContainer Tracking\nAMS Filing\nISF Filing\nACI(EM) Filing\nAFR Filing\nFMC Application\nJC Selection\nFreightsite Finder\nAbout Us\nAbout Us\nContact Us\nResources\nSuccess Story\nHelp Center\nCustomer\nMy Dashboard\nOpinion/Suggestion\nSign In\nSign up\n\n© 2025 jctrans', '2-20240208\n\nPost Inquiry\n\nGo to cart']"
"Whale Logistics (Shanghai) Co.,Ltd",Shanghai - China,Shanghai,China,"['FCL', 'LCL', 'Air Freight']",https://www.jctrans.com/en/store/home/aa44d7d278e7d66108402b072515c4eb,10-Year,['VIP Level 1'],Focus on Australian/USA/Taiwan CY S/C and CONSOL,True,2025-08-06T07:23:36.675307,2,"https://www.jctrans.com/en/membership/list/0-JC%20Elite,GCP?years=0&page=2",,,21020202000645,"['21020202000645', '2022004632']",https://www.whalesha.com.cn,['https://www.whalesha.com.cn'],"102388
10-Year
Subscribe

Focus on Australian/USA/Taiwan CY S/C and CONSOL

JC Elite
13-Apr-2028 
Chat Online
1-on-1 Inquiry
Service Scope
Company Profile
Attented History
Contact Us
Branches
Service Scope
Total Likes
6
····
Company Profile
Founded in the 2008,Taiwan was headquarter,we have branches office in the Taipei,Taichung,Kaosiung,Hongkong,Ningbo,Tianjin,Shenzhen,Guangzhou,Sydney,Melbourne,LAX,NYC","['102388\n10-Year\nSubscribe\n\nFocus on Australian/USA/Taiwan CY S/C and CONSOL\n\nJC Elite\n13-Apr-2028 \nChat Online\n1-on-1 Inquiry\nService Scope\nCompany Profile\nAttented History\nContact Us\nBranches\nService Scope\nTotal Likes\n6\n····\nCompany Profile\nFounded in the 2008,Taiwan was headquarter,we have branches office in the Taipei,Taichung,Kaosiung,Hongkong,Ningbo,Tianjin,Shenzhen,Guangzhou,Sydney,Melbourne,LAX,NYC', '82 North Zhongshan No.1 Road,Shanghai,P.R.China\n\nEstablishment Time\n\n2008\n\nEnterprise Size\n\n101-500\n\nWebsite\n\nwww.whalesha.com.cn\n\nCertificates\n\nCompany Picture\n\nWhale Logistics (Shanghai) Co', '2-20240208\n\nPost Inquiry\n\nGo to cart']"
"Whale Logistics(Shanghai) Co., Ltd. Shenzhen Branch",Shenzhen - China,Shenzhen,China,"['FCL', 'LCL', 'Air Freight']",https://www.jctrans.com/en/store/home/1b4d81ab5ad577f5bdc1750b1dfe5118,10-Year,['VIP Level 1'],Focus on Australian/USA/Taiwan CY S/C and CONSOL,True,2025-08-06T07:23:36.770311,2,"https://www.jctrans.com/en/membership/list/0-JC%20Elite,GCP?years=0&page=2",,,21020202000645,"['21020202000645', '2022004632']",https://www.whalesha.com.cn,['https://www.whalesha.com.cn'],"188881
10-Year
Subscribe

Focus on Australian/USA/Taiwan CY S/C and CONSOL

JC Elite
11-Apr-2028 
Chat Online
1-on-1 Inquiry
Service Scope
Company Profile
Attented History
Contact Us
Branches
Service Scope
Total Likes
1
Company Profile
We Whale Logistics Co Ltd was founded in Taipei","['188881\n10-Year\nSubscribe\n\nFocus on Australian/USA/Taiwan CY S/C and CONSOL\n\nJC Elite\n11-Apr-2028 \nChat Online\n1-on-1 Inquiry\nService Scope\nCompany Profile\nAttented History\nContact Us\nBranches\nService Scope\nTotal Likes\n1\nCompany Profile\nWe Whale Logistics Co Ltd was founded in Taipei', '2012, Whale Logistics established a branch in Shenzhen to provide diverse services to customers around the world, including import and export, and transshipment service, which are making the business more prosperous. As making an overall arrangement in the Chinese market is an indispensable strategic factor in providing comprehensive services, all the staff of Whale are looking forward to creating diverse professional services to fulfill the needs of customers, utilizing our many years of experience, reducing cost, enhancing efficiency and customer service with competitive prices, and making a good impression in the industry!WHALE is a member of JC-Trans & WCA (WCA ID: 84449), and has First Class license freight forwarding & NOVCC in China', '101, Xin Li Hua Information Industrial Park, Lixin Road No. 49, Nanwan Street, Buji Town, Longgang District, 518114 Shenzhen, China\n\nEstablishment Time\n\n2012\n\nEnterprise Size\n\n11-50\n\nWebsite\n\nwww.whalesha.com.cn\n\nCertificates\n\nCompany Picture\n\nWhale Logistics(Shanghai) Co', '2-20240208\n\nPost Inquiry\n\nGo to cart']"
1UP CARGO,Durban - South Africa,Durban,South Africa,"['Customs Clearance', 'Warehousing', 'FCL', 'LCL', 'Air Freight']",https://www.jctrans.com/en/store/home/51bce31a7dac8a8fd72dac090437051d,9-Year,['VIP Level 1'],,True,2025-08-06T07:23:36.856927,2,"https://www.jctrans.com/en/membership/list/0-JC%20Elite,GCP?years=0&page=2",,,21020202000645,"['21020202000645', '2022004632']",https://www.1upcargo.com,['https://www.1upcargo.com'],"1UP CARGO

Member ID 777755
9-Year
Subscribe

JC Elite
27-Feb-2031 
Chat Online
1-on-1 Inquiry
Company Profile
Attented History
Contact Us
Branches
Service Scope
Company Profile
A Family Firm formed by a merger of multiple business units across Australia, Canada, USA, South Africa, and New Zealand. 

We have quickly positioned ourselves as one of the leading Supply Chain and Freight Forwarding Solution providers. We pride ourselves on being a one-stop International Logistics provider","['1UP CARGO\n\nMember ID 777755\n9-Year\nSubscribe\n\nJC Elite\n27-Feb-2031 \nChat Online\n1-on-1 Inquiry\nCompany Profile\nAttented History\nContact Us\nBranches\nService Scope\nCompany Profile\nA Family Firm formed by a merger of multiple business units across Australia, Canada, USA, South Africa, and New Zealand. \n\nWe have quickly positioned ourselves as one of the leading Supply Chain and Freight Forwarding Solution providers. We pride ourselves on being a one-stop International Logistics provider', '1 Rocky Ridge 16 Mahogany Road Mahogany Ridge Durban, Kwa-Zulu Natal\n\nEstablishment Time\n\n2020\n\nEnterprise Size\n\nless than 10\n\nWebsite\n\nwww.1upcargo.com\n\nCertificates\n1UP CARGOSouth Africa , , , ,\nMembership\nMembership introduction\nBenefits Overview\nJC Elite\nJC Premium\nJC Rising\nJC Project\nJC Dangerous Goods\nJC Railway\nJC eCommerce\nJC Vendor\nClub\nBecome a Member\nBusiness Opportunity\nCompany Directory\nInquiry\nFind Agent\nCooperation Risk Protection\nRisk Member List\nOnline Claim\nRisk Prevention\nAssurance Introduction\nEvent\nGlobal Conference\nExhibiton\nIndustry Event\nJC Pay\nSettlement between members without any fees\nCollect money from your Chinese partner cheap and fast\nTools\nSchedule Plan\nContainer Tracking\nAMS Filing\nISF Filing\nACI(EM) Filing\nAFR Filing\nFMC Application\nJC Selection\nFreightsite Finder\nAbout Us\nAbout Us\nContact Us\nResources\nSuccess Story\nHelp Center\nCustomer\nMy Dashboard\nOpinion/Suggestion\nSign In\nSign up\n\n© 2025 jctrans', '2-20240208\n\nPost Inquiry\n\nGo to cart']"
BUS Biuro Uslug Spedycyjnych Sp. J.,Warszawa - Poland,Warszawa,Poland,"['FCL', 'LCL', 'Air Freight', 'Customs Clearance', 'Truck']",https://www.jctrans.com/en/store/home/cbffe2a8a3cf74a33fbd285d27a77069,9-Year,['VIP Level 1'],,True,2025-08-06T07:23:36.955140,2,"https://www.jctrans.com/en/membership/list/0-JC%20Elite,GCP?years=0&page=2",,,21020202000645,"['21020202000645', '2022004632']",https://www.bussped.pl,['https://www.bussped.pl'],"015125
9-Year
Subscribe

JC Elite
28-Aug-2026 
Chat Online
1-on-1 Inquiry
Company Profile
Attented History
Contact Us
Service Scope
Total Likes
1
Company Profile
BUS (Biuro Uslug Spedycyjnych) is a privately held Freight Forwarder with its headquarter in Warsaw","['015125\n9-Year\nSubscribe\n\nJC Elite\n28-Aug-2026 \nChat Online\n1-on-1 Inquiry\nCompany Profile\nAttented History\nContact Us\nService Scope\nTotal Likes\n1\nCompany Profile\nBUS (Biuro Uslug Spedycyjnych) is a privately held Freight Forwarder with its headquarter in Warsaw', '02-234 Warszawa, ul. Dzialkowa 117\n\nEstablishment Time\n\n1987\n\nEnterprise Size\n\n51-100\n\nWebsite\n\nwww.bussped.pl\n\nCertificates\nBUS Biuro Uslug Spedycyjnych Sp. J.Poland , , , ,\nMembership\nMembership introduction\nBenefits Overview\nJC Elite\nJC Premium\nJC Rising\nJC Project\nJC Dangerous Goods\nJC Railway\nJC eCommerce\nJC Vendor\nClub\nBecome a Member\nBusiness Opportunity\nCompany Directory\nInquiry\nFind Agent\nCooperation Risk Protection\nRisk Member List\nOnline Claim\nRisk Prevention\nAssurance Introduction\nEvent\nGlobal Conference\nExhibiton\nIndustry Event\nJC Pay\nSettlement between members without any fees\nCollect money from your Chinese partner cheap and fast\nTools\nSchedule Plan\nContainer Tracking\nAMS Filing\nISF Filing\nACI(EM) Filing\nAFR Filing\nFMC Application\nJC Selection\nFreightsite Finder\nAbout Us\nAbout Us\nContact Us\nResources\nSuccess Story\nHelp Center\nCustomer\nMy Dashboard\nOpinion/Suggestion\nSign In\nSign up\n\n© 2025 jctrans', '2-20240208\n\nPost Inquiry\n\nGo to cart']"
"CONAIR INTERTRAFFIC CO.,LTD",Bangkok - Thailand,Bangkok,Thailand,"['FCL', 'LCL', 'Special Container', 'Air Freight', 'Customs Clearance']",https://www.jctrans.com/en/store/home/53f608744d36098161cbeb93177b9706,9-Year,['VIP Level 1'],Move for Anything. Move to Anywhere. Move with Con,True,2025-08-06T07:23:37.046165,2,"https://www.jctrans.com/en/membership/list/0-JC%20Elite,GCP?years=0&page=2",,,21020202000645,"['21020202000645', '2022004632']",https://www.conair.co.th,['https://www.conair.co.th'],"999989
9-Year
Subscribe

Move for Anything. Move to Anywhere. Move with Con

JC Elite
4-Mar-2030 
Chat Online
1-on-1 Inquiry
Service Scope
Company Profile
Attented History
Contact Us
Service Scope
Total Likes
10
····
Company Profile
Conair Intertraffic Co","['999989\n9-Year\nSubscribe\n\nMove for Anything. Move to Anywhere. Move with Con\n\nJC Elite\n4-Mar-2030 \nChat Online\n1-on-1 Inquiry\nService Scope\nCompany Profile\nAttented History\nContact Us\nService Scope\nTotal Likes\n10\n····\nCompany Profile\nConair Intertraffic Co', '20 years in freight forwarding business. You will assure by our experienced staffs who have well- trained and high qualification to careful and well handle for every piece of your cargo on every process of transportation, air freight, sea freight, land freight and express courier and project service provider. We aim to offer the best total logistics service covering the majority importing and exporting market of Thailand at the reasonable price. We do hope that with efficiencies and strongly intention of all our staffs to offer the best service to our customer and smart vision of our management will bring us to your mind for the best transportation company that you have never seen before.\n\nBasic Information\n\nLocation\n\nBangkok, Thailand\n\nAddress\n\n99/7-8 Naradhiwas Rajanagarindra Rd, Chong Nonsi, Yan Nawa, Bangkok 10120,Thailand\n\nEstablishment Time\n\n1997\n\nEnterprise Size\n\n51-100\n\nWebsite\n\nwww', '2-20240208\n\nPost Inquiry\n\nGo to cart']"
CONNECT CARGO PVT LTD,Chennai - India,Chennai,India,"['FCL', 'LCL', 'Hazardous Cargo', 'Break Bulk', 'Customs Clearance']",https://www.jctrans.com/en/store/home/d79ba1b2faf70a97ce418235bf66cbc9,9-Year,['VIP Level 1'],To make our customer’s businesses more competitive,True,2025-08-06T07:23:37.147444,2,"https://www.jctrans.com/en/membership/list/0-JC%20Elite,GCP?years=0&page=2",,,21020202000645,"['21020202000645', '2022004632']",https://www.connectcargo.com,['https://www.connectcargo.com'],"100641
9-Year
Subscribe

To make our customer’s businesses more competitive

JC Elite
29-Jul-2026 
Chat Online
1-on-1 Inquiry
Service Scope
Company Profile
Attented History
Contact Us
Service Scope
Total Likes
1
Company Profile
Connect Cargo Pvt Ltd is a professional company providing end to end logistics across India","['100641\n9-Year\nSubscribe\n\nTo make our customer’s businesses more competitive\n\nJC Elite\n29-Jul-2026 \nChat Online\n1-on-1 Inquiry\nService Scope\nCompany Profile\nAttented History\nContact Us\nService Scope\nTotal Likes\n1\nCompany Profile\nConnect Cargo Pvt Ltd is a professional company providing end to end logistics across India', '20 locations, we can offer complete and prompt logistics services in India.\n\nRegular Services\n- Airfreight and sea freight\n- FCL and LCL movement\n- Break bulk and over dimensional cargo specialists\n- Port to Port, Ex-Works, DDU, DDP\n\nCombining group company strengths we can offer\n-warehousing & distribution\n-inland trucking\n-trading\n-reverse logistics \n-on demand trucking\netc', '2nd Floor, Spurtank Road,Chetpet Chennai - 600031,India\n\nEstablishment Time\n\n2001\n\nEnterprise Size\n\n11-50\n\nWebsite\n\nwww.connectcargo.com\n\nCertificates\n\nCompany Picture\n\nCONNECT CARGO PVT LTDIndia , , , ,\nMembership\nMembership introduction\nBenefits Overview\nJC Elite\nJC Premium\nJC Rising\nJC Project\nJC Dangerous Goods\nJC Railway\nJC eCommerce\nJC Vendor\nClub\nBecome a Member\nBusiness Opportunity\nCompany Directory\nInquiry\nFind Agent\nCooperation Risk Protection\nRisk Member List\nOnline Claim\nRisk Prevention\nAssurance Introduction\nEvent\nGlobal Conference\nExhibiton\nIndustry Event\nJC Pay\nSettlement between members without any fees\nCollect money from your Chinese partner cheap and fast\nTools\nSchedule Plan\nContainer Tracking\nAMS Filing\nISF Filing\nACI(EM) Filing\nAFR Filing\nFMC Application\nJC Selection\nFreightsite Finder\nAbout Us\nAbout Us\nContact Us\nResources\nSuccess Story\nHelp Center\nCustomer\nMy Dashboard\nOpinion/Suggestion\nSign In\nSign up\n\n© 2025 jctrans', '2-20240208\n\nPost Inquiry\n\nGo to cart']"
Direct Freight,Amman - Jordan,Amman,Jordan,"['FCL', 'Air Freight', 'Customs Clearance', 'Reefer Container', 'Truck']",https://www.jctrans.com/en/store/home/e211e902e617d66d4a816ca87c3dce39,9-Year,"['VIP Level 1', 'VIP Level 7']",,True,2025-08-06T07:23:37.252020,2,"https://www.jctrans.com/en/membership/list/0-JC%20Elite,GCP?years=0&page=2",,,21020202000645,"['21020202000645', '2022004632']",https://www.freight-direct.com,['https://www.freight-direct.com'],"109805
9-Year
Subscribe

JC Elite
10-Jun-2026 
JC Projects
12-Dec-2025 
Chat Online
1-on-1 Inquiry
Company Profile
Contact Us
Service Scope
Company Profile
Direct Freight for more than a decade and with its high capability, wide network, professional experts, customer-oriented approach, and distinctive reputation in the transportation industry, has become a leading provider of customer-driven freight services in the region.
Direct Freight was established in 2004 in Jordan to provide customized turnkey import and export services by land, sea and air","['109805\n9-Year\nSubscribe\n\nJC Elite\n10-Jun-2026 \nJC Projects\n12-Dec-2025 \nChat Online\n1-on-1 Inquiry\nCompany Profile\nContact Us\nService Scope\nCompany Profile\nDirect Freight for more than a decade and with its high capability, wide network, professional experts, customer-oriented approach, and distinctive reputation in the transportation industry, has become a leading provider of customer-driven freight services in the region.\nDirect Freight was established in 2004 in Jordan to provide customized turnkey import and export services by land, sea and air', '2005\n\nEnterprise Size\n\n11-50\n\nWebsite\n\nwww.freight-direct.com\n\nCertificates\nDirect FreightJordan , , , , , ,\nMembership\nMembership introduction\nBenefits Overview\nJC Elite\nJC Premium\nJC Rising\nJC Project\nJC Dangerous Goods\nJC Railway\nJC eCommerce\nJC Vendor\nClub\nBecome a Member\nBusiness Opportunity\nCompany Directory\nInquiry\nFind Agent\nCooperation Risk Protection\nRisk Member List\nOnline Claim\nRisk Prevention\nAssurance Introduction\nEvent\nGlobal Conference\nExhibiton\nIndustry Event\nJC Pay\nSettlement between members without any fees\nCollect money from your Chinese partner cheap and fast\nTools\nSchedule Plan\nContainer Tracking\nAMS Filing\nISF Filing\nACI(EM) Filing\nAFR Filing\nFMC Application\nJC Selection\nFreightsite Finder\nAbout Us\nAbout Us\nContact Us\nResources\nSuccess Story\nHelp Center\nCustomer\nMy Dashboard\nOpinion/Suggestion\nSign In\nSign up\n\n© 2025 jctrans', '2-20240208\n\nPost Inquiry\n\nGo to cart']"
"IMPORTCARGO, S.A.",Alicante - Spain,Alicante,Spain,"['FCL', 'LCL', 'Air Freight']",https://www.jctrans.com/en/store/home/274ba4baa96a83768cae6311af7be72f,9-Year,['VIP Level 1'],"TRANSPORTATION, LOGISTICS SERVICES AND CUSTOM BROK",True,2025-08-06T07:23:37.365969,2,"https://www.jctrans.com/en/membership/list/0-JC%20Elite,GCP?years=0&page=2",,,21020202000645,"['21020202000645', '2022004632']",https://www.importcargo.com,['https://www.importcargo.com'],"600006
9-Year
Subscribe

TRANSPORTATION, LOGISTICS SERVICES AND CUSTOM BROK

JC Elite
1-Jul-2027 
Chat Online
1-on-1 Inquiry
Service Scope
Company Profile
Attented History
Contact Us
Branches
Service Scope
Total Likes
2
Company Profile
ABOUT IMPORT CARGO S.A.

Importcargo Group is a freight forwarding Company / Logisitic operator who offers its customers a wide range of logistics services such as Air Freight, Ocean freight  from and to anywhere in the world","['600006\n9-Year\nSubscribe\n\nTRANSPORTATION, LOGISTICS SERVICES AND CUSTOM BROK\n\nJC Elite\n1-Jul-2027 \nChat Online\n1-on-1 Inquiry\nService Scope\nCompany Profile\nAttented History\nContact Us\nBranches\nService Scope\nTotal Likes\n2\nCompany Profile\nABOUT IMPORT CARGO S.A.\n\nImportcargo Group is a freight forwarding Company / Logisitic operator who offers its customers a wide range of logistics services such as Air Freight, Ocean freight  from and to anywhere in the world', '30 ENTLO B\n\nEstablishment Time\n\n1994\n\nEnterprise Size\n\n11-50\n\nWebsite\n\nWWW.IMPORTCARGO.COM\n\nCertificates\n\nCompany Picture\n\nIMPORTCARGO, S.A.Spain , ,\nMembership\nMembership introduction\nBenefits Overview\nJC Elite\nJC Premium\nJC Rising\nJC Project\nJC Dangerous Goods\nJC Railway\nJC eCommerce\nJC Vendor\nClub\nBecome a Member\nBusiness Opportunity\nCompany Directory\nInquiry\nFind Agent\nCooperation Risk Protection\nRisk Member List\nOnline Claim\nRisk Prevention\nAssurance Introduction\nEvent\nGlobal Conference\nExhibiton\nIndustry Event\nJC Pay\nSettlement between members without any fees\nCollect money from your Chinese partner cheap and fast\nTools\nSchedule Plan\nContainer Tracking\nAMS Filing\nISF Filing\nACI(EM) Filing\nAFR Filing\nFMC Application\nJC Selection\nFreightsite Finder\nAbout Us\nAbout Us\nContact Us\nResources\nSuccess Story\nHelp Center\nCustomer\nMy Dashboard\nOpinion/Suggestion\nSign In\nSign up\n\n© 2025 jctrans', '2-20240208\n\nPost Inquiry\n\nGo to cart']"
"KNIGHT LOGISTICS CO., LTD.",Ho Chi Minh City - Vietnam,Ho Chi Minh City,Vietnam,"['Special Container', 'Air Freight', 'Customs Clearance', 'Hazardous Cargo', 'Intermodal']",https://www.jctrans.com/en/store/home/22a4483b3fcb7acfffb4e03e132dcef1,9-Year,['VIP Level 1'],established in 2004. We covered all of Vietnam.,True,2025-08-06T07:23:37.441596,2,"https://www.jctrans.com/en/membership/list/0-JC%20Elite,GCP?years=0&page=2",,,21020202000645,"['21020202000645', '2022004632']",,,"099059
9-Year
Subscribe

established in 2004. We covered all of Vietnam.

JC Elite
10-Dec-2025 
Chat Online
1-on-1 Inquiry
Service Scope
Company Profile
Attented History
Contact Us
Service Scope
Total Likes
6
····
Company Profile
KNIGHT LOGISTICS was established in June, 2004, and since then has been growing along with the development of the Vietnam logistics industry","['099059\n9-Year\nSubscribe\n\nestablished in 2004. We covered all of Vietnam.\n\nJC Elite\n10-Dec-2025 \nChat Online\n1-on-1 Inquiry\nService Scope\nCompany Profile\nAttented History\nContact Us\nService Scope\nTotal Likes\n6\n····\nCompany Profile\nKNIGHT LOGISTICS was established in June, 2004, and since then has been growing along with the development of the Vietnam logistics industry', '81 Street No. 6, Cityland Residence, Ward 10, Go Vap District, Ho Chi Minh City, Vietnam\n\nEstablishment Time\n\n2010\n\nEnterprise Size\n\n51-100\n\nWebsite\n\nknight.com.vn\n\nCertificates\n\nCompany Picture\n\nKNIGHT LOGISTICS CO., LTD.Vietnam , , , ,\nMembership\nMembership introduction\nBenefits Overview\nJC Elite\nJC Premium\nJC Rising\nJC Project\nJC Dangerous Goods\nJC Railway\nJC eCommerce\nJC Vendor\nClub\nBecome a Member\nBusiness Opportunity\nCompany Directory\nInquiry\nFind Agent\nCooperation Risk Protection\nRisk Member List\nOnline Claim\nRisk Prevention\nAssurance Introduction\nEvent\nGlobal Conference\nExhibiton\nIndustry Event\nJC Pay\nSettlement between members without any fees\nCollect money from your Chinese partner cheap and fast\nTools\nSchedule Plan\nContainer Tracking\nAMS Filing\nISF Filing\nACI(EM) Filing\nAFR Filing\nFMC Application\nJC Selection\nFreightsite Finder\nAbout Us\nAbout Us\nContact Us\nResources\nSuccess Story\nHelp Center\nCustomer\nMy Dashboard\nOpinion/Suggestion\nSign In\nSign up\n\n© 2025 jctrans', '2-20240208\n\nPost Inquiry\n\nGo to cart']"
